{"type": "FeatureCollection", "features": [{"type": "Feature", "properties": {"route": "ATLC", "color": "#075AAA", "name": "Atlantic City Rail Line"}, "geometry": {"type": "LineString", "coordinates": [[-75.182327, 39.956565], [-75.183214, 39.956666], [-75.184066, 39.956734], [-75.185185, 39.956745], [-75.185878, 39.956814], [-75.186451, 39.957028], [-75.18691, 39.957367], [-75.187205, 39.9578], [-75.187318, 39.958283], [-75.186464, 39.961851], [-75.186399, 39.962478], [-75.186434, 39.963204], [-75.186511, 39.963673], [-75.186742, 39.964218], [-75.187781, 39.965509], [-75.188248, 39.965955], [-75.188829, 39.966317], [-75.189491, 39.966578], [-75.191055, 39.96692], [-75.19649, 39.968594], [-75.196833, 39.969518], [-75.197955, 39.972505], [-75.197614, 39.973017], [-75.193414, 39.976722], [-75.191456, 39.977903], [-75.178952, 39.986176], [-75.177421, 39.987058], [-75.163971, 39.993827], [-75.162293, 39.994558], [-75.138798, 40.003259], [-75.136629, 40.003966], [-75.134131, 40.004563], [-75.131567, 40.004958], [-75.128963, 40.005141], [-75.126344, 40.005117], [-75.123747, 40.004884], [-75.098301, 40.00153], [-75.092209, 40.000349], [-75.09086, 40.000033], [-75.089428, 39.999573], [-75.088067, 39.999003], [-75.086792, 39.998324], [-75.085616, 39.997548], [-75.084552, 39.996682], [-75.083608, 39.995734], [-75.077671, 39.989053], [-75.077183, 39.98853], [-75.075868, 39.987319], [-75.074391, 39.98622], [-75.061796, 39.977766], [-75.055604, 39.973609], [-75.053401, 39.972006], [-75.050431, 39.969427], [-75.047822, 39.966621], [-75.038979, 39.955647], [-75.038696, 39.955194], [-75.038297, 39.954038], [-75.03811, 39.953334], [-75.037986, 39.952479], [-75.037985, 39.951616], [-75.038097, 39.950758], [-75.041123, 39.935758], [-75.041235, 39.934914], [-75.041661, 39.928447], [-75.043088, 39.906768], [-75.043037, 39.905957], [-75.042921, 39.90553], [-75.042753, 39.905113], [-75.042523, 39.90471], [-75.042247, 39.90433], [-75.041914, 39.903973], [-75.040515, 39.902691], [-75.039907, 39.902093], [-75.039094, 39.901132], [-75.038413, 39.900107], [-75.035209, 39.894911], [-75.034815, 39.894226], [-75.034198, 39.89287], [-75.032278, 39.888137], [-75.031776, 39.887107], [-75.031185, 39.886211], [-75.030477, 39.885367], [-75.029657, 39.884583], [-75.025791, 39.8813], [-75.024525, 39.880338], [-75.02321, 39.879533], [-75.018367, 39.87696], [-75.017248, 39.876321], [-75.015568, 39.875184], [-75.014052, 39.873915], [-75.012718, 39.872531], [-75.012009, 39.871657], [-75.010989, 39.870123], [-75.010455, 39.869109], [-75.009921, 39.86773], [-75.009573, 39.866319], [-75.009425, 39.865472], [-75.00919, 39.863949], [-75.009059, 39.855643], [-75.008928, 39.854078], [-75.008587, 39.852522], [-75.008035, 39.850998], [-75.001835, 39.836371], [-75.001559, 39.835779], [-75.000868, 39.83459], [-75.000289, 39.83382], [-75.000021, 39.833463], [-74.999027, 39.832414], [-74.997895, 39.831449], [-74.996641, 39.830581], [-74.978646, 39.821055], [-74.977585, 39.820444], [-74.973451, 39.817718], [-74.966318, 39.812939], [-74.96564, 39.812506], [-74.96388, 39.811538], [-74.962, 39.810716], [-74.960019, 39.81005], [-74.956458, 39.809009], [-74.947777, 39.8064], [-74.946896, 39.806115], [-74.945244, 39.805455], [-74.943688, 39.804666], [-74.907709, 39.783618], [-74.894466, 39.775863], [-74.893575, 39.775312], [-74.891946, 39.774128], [-74.890488, 39.772824], [-74.889215, 39.771407], [-74.888142, 39.769895], [-74.878087, 39.75305], [-74.877388, 39.752012], [-74.846714, 39.711461], [-74.845621, 39.709765], [-74.844971, 39.708356], [-74.844512, 39.706907], [-74.843149, 39.70101], [-74.843029, 39.700429], [-74.842834, 39.698711], [-74.842868, 39.696987], [-74.843136, 39.695277], [-74.843636, 39.693594], [-74.84436, 39.691964], [-74.845302, 39.690399], [-74.852791, 39.679479], [-74.853222, 39.678794], [-74.853739, 39.677747], [-74.85411, 39.676662], [-74.854335, 39.675555], [-74.854404, 39.674437], [-74.854326, 39.673316], [-74.854096, 39.672209], [-74.853715, 39.67113], [-74.853193, 39.670083], [-74.852531, 39.669085], [-74.851738, 39.668148], [-74.85082, 39.66728], [-74.849792, 39.666488], [-74.799499, 39.63167], [-74.648159, 39.526545], [-74.533878, 39.446817], [-74.503542, 39.425464], [-74.502101, 39.424327], [-74.500552, 39.422836], [-74.499411, 39.421425], [-74.498462, 39.419929], [-74.497726, 39.418364], [-74.4972, 39.416748], [-74.496897, 39.415098], [-74.496818, 39.413432], [-74.496973, 39.399618], [-74.4969, 39.398067], [-74.496588, 39.396215], [-74.496024, 39.394398], [-74.495657, 39.39348], [-74.494924, 39.392069], [-74.494003, 39.390723], [-74.492908, 39.38946], [-74.491645, 39.38829], [-74.490237, 39.387232], [-74.465787, 39.370588], [-74.465216, 39.370125], [-74.463702, 39.369081], [-74.463246, 39.368793], [-74.462692, 39.368508], [-74.462101, 39.368269], [-74.461478, 39.36808], [-74.460838, 39.367943], [-74.456426, 39.36719], [-74.454366, 39.36674], [-74.441486, 39.363301]]}}, {"type": "Feature", "properties": {"route": "BNTN", "color": "#E66859", "name": "Montclair-Boonton Line"}, "geometry": {"type": "LineString", "coordinates": [[-74.835352, 40.851444], [-74.834794, 40.852017], [-74.833057, 40.853806], [-74.82807, 40.858873], [-74.826604, 40.86015], [-74.825324, 40.861027], [-74.823932, 40.861797], [-74.822442, 40.862452], [-74.820633, 40.863153], [-74.819716, 40.86357], [-74.81906, 40.863959], [-74.818458, 40.864394], [-74.817921, 40.864877], [-74.817453, 40.8654], [-74.817057, 40.865956], [-74.816741, 40.866543], [-74.813747, 40.873062], [-74.813551, 40.873522], [-74.811297, 40.878274], [-74.810905, 40.878978], [-74.810208, 40.879965], [-74.80938, 40.880894], [-74.808426, 40.881749], [-74.807363, 40.882527], [-74.803713, 40.884922], [-74.802117, 40.885829], [-74.801043, 40.886363], [-74.799912, 40.886876], [-74.79841, 40.887421], [-74.79684, 40.887843], [-74.792083, 40.888912], [-74.790817, 40.88929], [-74.790092, 40.889599], [-74.789409, 40.889964], [-74.788785, 40.89038], [-74.788379, 40.890682], [-74.78786, 40.891172], [-74.787467, 40.891723], [-74.786407, 40.892918], [-74.786007, 40.893321], [-74.785492, 40.893743], [-74.784926, 40.894124], [-74.784305, 40.894455], [-74.780895, 40.896091], [-74.761949, 40.904956], [-74.761343, 40.905296], [-74.758321, 40.907683], [-74.75778, 40.908069], [-74.757264, 40.908359], [-74.752596, 40.910713], [-74.751892, 40.911017], [-74.751352, 40.911187], [-74.750786, 40.911313], [-74.750209, 40.911396], [-74.749625, 40.911431], [-74.749038, 40.911417], [-74.748454, 40.91136], [-74.747885, 40.911256], [-74.747331, 40.911108], [-74.746802, 40.910916], [-74.744461, 40.909951], [-74.743621, 40.909672], [-74.743074, 40.909557], [-74.742512, 40.909483], [-74.734489, 40.908757], [-74.733623, 40.908633], [-74.732953, 40.908477], [-74.732312, 40.908266], [-74.731699, 40.908006], [-74.731127, 40.907699], [-74.73065, 40.907378], [-74.730129, 40.906956], [-74.729709, 40.906529], [-74.729351, 40.906071], [-74.726393, 40.901788], [-74.726032, 40.901109], [-74.725867, 40.900388], [-74.725902, 40.899656], [-74.726136, 40.898947], [-74.727091, 40.896965], [-74.727328, 40.896234], [-74.727359, 40.895505], [-74.727187, 40.894784], [-74.726819, 40.894107], [-74.726277, 40.893502], [-74.725582, 40.892995], [-74.72476, 40.892611], [-74.723855, 40.892364], [-74.722898, 40.892266], [-74.719617, 40.892433], [-74.718674, 40.892532], [-74.717924, 40.89268], [-74.717198, 40.892888], [-74.716505, 40.893151], [-74.715851, 40.893469], [-74.709864, 40.896719], [-74.708808, 40.897185], [-74.708159, 40.897382], [-74.707484, 40.897527], [-74.706795, 40.897617], [-74.706095, 40.897653], [-74.703503, 40.897681], [-74.701143, 40.89759], [-74.700251, 40.897587], [-74.699309, 40.897659], [-74.69838, 40.897807], [-74.69748, 40.898026], [-74.696613, 40.898314], [-74.69535, 40.898796], [-74.693985, 40.89921], [-74.688854, 40.900996], [-74.68596, 40.902139], [-74.684359, 40.90281], [-74.683619, 40.903153], [-74.68274, 40.903649], [-74.681929, 40.904213], [-74.681228, 40.904759], [-74.680366, 40.905359], [-74.67948, 40.905849], [-74.678016, 40.906581], [-74.677316, 40.906896], [-74.676343, 40.90725], [-74.675327, 40.907524], [-74.674278, 40.907715], [-74.673208, 40.907822], [-74.672312, 40.907877], [-74.671409, 40.907883], [-74.67075, 40.907825], [-74.670101, 40.907715], [-74.669474, 40.907554], [-74.668873, 40.907345], [-74.668301, 40.907088], [-74.667585, 40.906666], [-74.667129, 40.906321], [-74.666724, 40.905942], [-74.666374, 40.905531], [-74.666082, 40.905096], [-74.665852, 40.904641], [-74.665557, 40.9038], [-74.665418, 40.90309], [-74.664862, 40.898574], [-74.664723, 40.897755], [-74.664411, 40.896716], [-74.663962, 40.89571], [-74.663713, 40.895239], [-74.663183, 40.894428], [-74.66275, 40.893937], [-74.662252, 40.893488], [-74.661695, 40.893077], [-74.661083, 40.892715], [-74.660425, 40.892403], [-74.65973, 40.892142], [-74.658998, 40.891942], [-74.658245, 40.8918], [-74.657477, 40.891718], [-74.655559, 40.891641], [-74.652746, 40.891718], [-74.649957, 40.892016], [-74.647222, 40.892534], [-74.646348, 40.89274], [-74.632836, 40.896557], [-74.624467, 40.898933], [-74.60782, 40.903698], [-74.606557, 40.904027], [-74.603625, 40.904608], [-74.598922, 40.905342], [-74.59807, 40.905438], [-74.597094, 40.90549], [-74.596405, 40.905518], [-74.591006, 40.905644], [-74.590201, 40.905619], [-74.589473, 40.905537], [-74.588759, 40.905394], [-74.588064, 40.9052], [-74.587406, 40.904948], [-74.571932, 40.898294], [-74.570973, 40.897796], [-74.570442, 40.897426], [-74.569966, 40.897017], [-74.569547, 40.896573], [-74.569191, 40.896099], [-74.568903, 40.895601], [-74.568685, 40.89508], [-74.568539, 40.894546], [-74.567333, 40.888487], [-74.567169, 40.887903], [-74.566937, 40.887358], [-74.566627, 40.886832], [-74.566246, 40.886336], [-74.565802, 40.88587], [-74.565293, 40.885445], [-74.563542, 40.884116], [-74.562765, 40.883637], [-74.561828, 40.883264], [-74.560807, 40.883047], [-74.559753, 40.882995], [-74.555887, 40.883409], [-74.545656, 40.884555], [-74.544902, 40.884609], [-74.544145, 40.884604], [-74.543391, 40.884538], [-74.542652, 40.884415], [-74.541936, 40.884231], [-74.541248, 40.883993], [-74.540594, 40.8837], [-74.532993, 40.879836], [-74.532339, 40.879545], [-74.531651, 40.87931], [-74.530931, 40.879129], [-74.530192, 40.879006], [-74.529439, 40.878943], [-74.528681, 40.87894], [-74.527927, 40.878995], [-74.527187, 40.879112], [-74.519709, 40.8806], [-74.519005, 40.880707], [-74.518288, 40.880759], [-74.51757, 40.880754], [-74.516856, 40.880691], [-74.516154, 40.88057], [-74.515474, 40.880398], [-74.514819, 40.88017], [-74.514197, 40.879893], [-74.513619, 40.879567], [-74.513092, 40.879197], [-74.512374, 40.87863], [-74.511963, 40.878334], [-74.511511, 40.878074], [-74.511023, 40.877849], [-74.510513, 40.877666], [-74.509974, 40.877523], [-74.509424, 40.877424], [-74.508859, 40.87737], [-74.508294, 40.877359], [-74.507724, 40.877394], [-74.507169, 40.877477], [-74.506625, 40.8776], [-74.506102, 40.877767], [-74.505604, 40.877972], [-74.505135, 40.878219], [-74.500005, 40.881532], [-74.499151, 40.882031], [-74.498227, 40.882456], [-74.497254, 40.882809], [-74.496237, 40.88308], [-74.495189, 40.883272], [-74.494119, 40.883376], [-74.489503, 40.883606], [-74.484958, 40.88373], [-74.482859, 40.883785], [-74.481513, 40.883891], [-74.480665, 40.883957], [-74.477926, 40.884333], [-74.477233, 40.884429], [-74.474655, 40.884566], [-74.473051, 40.884799], [-74.472234, 40.885029], [-74.470934, 40.885379], [-74.47031, 40.885519], [-74.469556, 40.885615], [-74.468892, 40.88564], [-74.468233, 40.885615], [-74.467577, 40.885536], [-74.466936, 40.885407], [-74.466318, 40.885226], [-74.454198, 40.880754], [-74.452849, 40.880332], [-74.451452, 40.880019], [-74.450022, 40.879822], [-74.448569, 40.879737], [-74.447116, 40.879767], [-74.445672, 40.879913], [-74.444674, 40.880082], [-74.443328, 40.880422], [-74.442034, 40.880866], [-74.441107, 40.881264], [-74.439732, 40.88196], [-74.438429, 40.882782], [-74.437704, 40.883272], [-74.436554, 40.883979], [-74.433604, 40.885947], [-74.418609, 40.895949], [-74.417552, 40.896732], [-74.416607, 40.897593], [-74.415865, 40.898429], [-74.413988, 40.900769], [-74.413345, 40.901405], [-74.412544, 40.901931], [-74.411613, 40.902314], [-74.408659, 40.903079], [-74.407958, 40.90329], [-74.407285, 40.903558], [-74.406656, 40.903876], [-74.40623, 40.904137], [-74.40381, 40.905729], [-74.403213, 40.906079], [-74.402569, 40.906384], [-74.400351, 40.907192], [-74.399685, 40.907466], [-74.399059, 40.907789], [-74.398484, 40.908159], [-74.388724, 40.915484], [-74.385895, 40.917394], [-74.383149, 40.918907], [-74.378147, 40.921398], [-74.377605, 40.921639], [-74.377037, 40.921833], [-74.376441, 40.921981], [-74.375831, 40.922083], [-74.375211, 40.922135], [-74.374156, 40.92208], [-74.373468, 40.921959], [-74.372798, 40.921787], [-74.372158, 40.921562], [-74.371551, 40.921285], [-74.370984, 40.920965], [-74.369276, 40.919652], [-74.368522, 40.919126], [-74.367699, 40.918666], [-74.366821, 40.918271], [-74.365892, 40.917948], [-74.365128, 40.917745], [-74.356745, 40.915818], [-74.356075, 40.915698], [-74.355391, 40.915629], [-74.354698, 40.915616], [-74.354009, 40.915657], [-74.35333, 40.915753], [-74.352665, 40.915903], [-74.352029, 40.916103], [-74.351421, 40.916355], [-74.350853, 40.916651], [-74.350328, 40.916994], [-74.349853, 40.917372], [-74.345799, 40.921222], [-74.345131, 40.921798], [-74.343977, 40.922702], [-74.343426, 40.923094], [-74.342821, 40.923439], [-74.341642, 40.924015], [-74.340655, 40.924445], [-74.339618, 40.924796], [-74.33875, 40.925017], [-74.327747, 40.927443], [-74.325422, 40.927859], [-74.323055, 40.928089], [-74.321299, 40.928139], [-74.320596, 40.928136], [-74.319349, 40.928087], [-74.318113, 40.927936], [-74.317081, 40.92773], [-74.301826, 40.924138], [-74.271394, 40.916967], [-74.270627, 40.916717], [-74.269949, 40.916353], [-74.269381, 40.915892], [-74.268158, 40.914402], [-74.267811, 40.913971], [-74.26331, 40.9084], [-74.260783, 40.905309], [-74.256975, 40.900251], [-74.255558, 40.898352], [-74.254013, 40.896149], [-74.251756, 40.893], [-74.251155, 40.892268], [-74.250458, 40.891589], [-74.24967, 40.890967], [-74.237661, 40.882669], [-74.236596, 40.88185], [-74.235813, 40.881116], [-74.235376, 40.880666], [-74.228991, 40.874131], [-74.235376, 40.880666], [-74.228991, 40.874131], [-74.228679, 40.873769], [-74.228422, 40.873385], [-74.225971, 40.869226], [-74.225495, 40.868639], [-74.22487, 40.86814], [-74.224123, 40.867751], [-74.223285, 40.867488], [-74.22245, 40.867332], [-74.221545, 40.867291], [-74.220648, 40.867395], [-74.219798, 40.867636], [-74.219033, 40.868009], [-74.215856, 40.870382], [-74.215071, 40.870919], [-74.214211, 40.87139], [-74.213294, 40.871793], [-74.212327, 40.872119], [-74.211767, 40.87227], [-74.208897, 40.872961], [-74.202305, 40.874665], [-74.201644, 40.874788], [-74.200966, 40.874805], [-74.200206, 40.874747], [-74.19954, 40.87464], [-74.198919, 40.874429], [-74.198368, 40.874128], [-74.197768, 40.873618], [-74.197392, 40.873188], [-74.197144, 40.872708], [-74.197033, 40.872199], [-74.19706, 40.871681], [-74.197439, 40.869782], [-74.197634, 40.868806], [-74.197808, 40.86816], [-74.198072, 40.867529], [-74.200183, 40.863874], [-74.201055, 40.862306], [-74.201711, 40.860898], [-74.202168, 40.859446], [-74.20236, 40.858445], [-74.202462, 40.857755], [-74.203176, 40.852915], [-74.203343, 40.852121], [-74.203623, 40.851345], [-74.204004, 40.850594], [-74.204328, 40.850096], [-74.20531, 40.848717], [-74.208479, 40.844262], [-74.208822, 40.843716], [-74.209085, 40.843146], [-74.209268, 40.84256], [-74.209365, 40.842012], [-74.209393, 40.84136], [-74.209331, 40.840757], [-74.207123, 40.831922], [-74.206941, 40.830925], [-74.206898, 40.829922], [-74.206938, 40.829516], [-74.206995, 40.828919], [-74.207094, 40.828406], [-74.209519, 40.818193], [-74.209611, 40.817651], [-74.20963, 40.81724], [-74.209579, 40.81656], [-74.209451, 40.816026], [-74.20925, 40.8155], [-74.207668, 40.812332], [-74.207252, 40.81162], [-74.207122, 40.811219], [-74.2072, 40.810691], [-74.207404, 40.810241], [-74.207719, 40.809849], [-74.20809, 40.809389], [-74.208311, 40.808962], [-74.208681, 40.808178], [-74.208918, 40.807679], [-74.209053, 40.807238], [-74.209088, 40.806665], [-74.209047, 40.806134], [-74.208875, 40.805259], [-74.208594, 40.804435], [-74.208341, 40.803977], [-74.208027, 40.803541], [-74.207659, 40.803133], [-74.207232, 40.802758], [-74.20562, 40.801475], [-74.205121, 40.801056], [-74.204655, 40.80059], [-74.204319, 40.800256], [-74.203633, 40.799398], [-74.203067, 40.798488], [-74.200666, 40.794052], [-74.20028, 40.793268], [-74.200069, 40.792703], [-74.199766, 40.791887], [-74.199445, 40.79047], [-74.199318, 40.789037], [-74.199269, 40.786505], [-74.199149, 40.785587], [-74.198455, 40.782743], [-74.195209, 40.769381], [-74.193121, 40.76062], [-74.192083, 40.756151], [-74.191825, 40.755567], [-74.191443, 40.755101], [-74.19098, 40.754737], [-74.190387, 40.754381], [-74.189417, 40.753718], [-74.187934, 40.752701], [-74.186759, 40.751978], [-74.186004, 40.751588], [-74.184798, 40.751008], [-74.18348, 40.750443], [-74.182262, 40.750037], [-74.179958, 40.749361], [-74.179377, 40.749213], [-74.172127, 40.747662], [-74.171518, 40.74753], [-74.170853, 40.747418], [-74.170177, 40.747357], [-74.169498, 40.747349], [-74.166436, 40.747494], [-74.165756, 40.7475], [-74.165076, 40.747451], [-74.164412, 40.747349], [-74.163763, 40.747193], [-74.163139, 40.746988], [-74.162545, 40.746735], [-74.161991, 40.746434], [-74.161482, 40.746091], [-74.158117, 40.743535], [-74.15759, 40.743176], [-74.157007, 40.74285], [-74.156378, 40.742573], [-74.155715, 40.742346], [-74.155026, 40.742176], [-74.154318, 40.742061], [-74.153595, 40.742], [-74.152872, 40.742], [-74.149797, 40.742115], [-74.146475, 40.742274], [-74.140658, 40.742694], [-74.136089, 40.743091], [-74.13022, 40.743557], [-74.127961, 40.743735], [-74.126047, 40.743823], [-74.117224, 40.743924], [-74.116591, 40.743946], [-74.115824, 40.743973], [-74.097098, 40.74531], [-74.091329, 40.745595], [-74.089817, 40.745606], [-74.088313, 40.7455], [-74.08683, 40.745272], [-74.080956, 40.744044], [-74.079629, 40.743757], [-74.078409, 40.743527], [-74.074982, 40.742809], [-74.074336, 40.742685], [-74.071929, 40.742269], [-74.071081, 40.742102], [-74.066097, 40.740995], [-74.064221, 40.740592], [-74.063301, 40.740392], [-74.062389, 40.740197], [-74.047514, 40.737018], [-74.046233, 40.736794], [-74.042036, 40.735873], [-74.036954, 40.734823], [-74.036206, 40.734733], [-74.028046, 40.73484]]}}, {"type": "Feature", "properties": {"route": "MNBN", "color": "#FFD411", "name": "Main/Bergen County Line"}, "geometry": {"type": "LineString", "coordinates": [[-74.153442, 41.11354], [-74.150392, 41.107736], [-74.149785, 41.10636], [-74.147869, 41.100968], [-74.147544, 41.099762], [-74.14662, 41.094416], [-74.145696, 41.089061], [-74.145605, 41.088455], [-74.145453, 41.086159], [-74.14549, 41.075045], [-74.145515, 41.067473], [-74.145498, 41.067032], [-74.14537, 41.066174], [-74.145125, 41.065333], [-74.142057, 41.056898], [-74.141884, 41.056422], [-74.137728, 41.045011], [-74.137522, 41.044329], [-74.137355, 41.043389], [-74.136987, 41.039983], [-74.136754, 41.038766], [-74.136424, 41.037851], [-74.135888, 41.036727], [-74.135232, 41.035692], [-74.134436, 41.034713], [-74.130993, 41.030932], [-74.129623, 41.029427], [-74.128768, 41.028348], [-74.128133, 41.027301], [-74.125401, 41.022081], [-74.125002, 41.021165], [-74.124803, 41.020442], [-74.123426, 41.012791], [-74.123296, 41.01207], [-74.123003, 41.010451], [-74.122892, 41.01001], [-74.122524, 41.009256], [-74.121954, 41.008579], [-74.121209, 41.008004], [-74.119141, 41.006938], [-74.118416, 41.006502], [-74.118024, 41.006193], [-74.117676, 41.00585], [-74.117379, 41.005483], [-74.117133, 41.005094], [-74.115949, 41.002948], [-74.11573, 41.002501], [-74.113529, 40.997366], [-74.113314, 40.996799], [-74.113172, 40.996196], [-74.113111, 40.995588], [-74.113136, 40.994977], [-74.113249, 40.994374], [-74.113437, 40.993779], [-74.113713, 40.993206], [-74.115816, 40.989411], [-74.120574, 40.980667], [-74.121375, 40.979193], [-74.124609, 40.973364], [-74.12626, 40.97027], [-74.126535, 40.969761], [-74.127753, 40.96704], [-74.128005, 40.96636], [-74.128222, 40.965795], [-74.128876, 40.964176], [-74.129216, 40.963028], [-74.129316, 40.962206], [-74.129307, 40.961381], [-74.129179, 40.960559], [-74.128945, 40.959753], [-74.127521, 40.955892], [-74.126744, 40.953799], [-74.126072, 40.952001], [-74.125854, 40.951395], [-74.125279, 40.949683], [-74.124051, 40.946403], [-74.123115, 40.94392], [-74.121934, 40.940722], [-74.121614, 40.939916], [-74.121245, 40.938856], [-74.120637, 40.937201], [-74.119389, 40.933863], [-74.118796, 40.932128], [-74.116416, 40.925782], [-74.115236, 40.922505], [-74.113881, 40.918737], [-74.112719, 40.916112], [-74.10398, 40.89959], [-74.103686, 40.899015], [-74.102735, 40.8967], [-74.102104, 40.894318], [-74.101806, 40.891901], [-74.101843, 40.889473], [-74.102213, 40.887062], [-74.102695, 40.884916], [-74.104243, 40.878014], [-74.106069, 40.869615], [-74.106159, 40.868688], [-74.106108, 40.868146], [-74.105987, 40.867612], [-74.105791, 40.867091], [-74.105568, 40.866666], [-74.10519, 40.866104], [-74.10479, 40.865655], [-74.104331, 40.865238], [-74.103817, 40.86486], [-74.103256, 40.864526], [-74.102647, 40.864236], [-74.100643, 40.863389], [-74.099764, 40.862961], [-74.099066, 40.862531], [-74.098431, 40.862049], [-74.097865, 40.861517], [-74.097375, 40.860944], [-74.096969, 40.860336], [-74.096648, 40.859698], [-74.096416, 40.85904], [-74.09628, 40.858366], [-74.096234, 40.857684], [-74.096282, 40.857004], [-74.096424, 40.85633], [-74.096657, 40.855669], [-74.096955, 40.854979], [-74.100787, 40.846068], [-74.10398, 40.838639], [-74.104198, 40.837981], [-74.104284, 40.83746], [-74.104301, 40.836937], [-74.104246, 40.836414], [-74.104118, 40.835898], [-74.103918, 40.835397], [-74.101297, 40.829826], [-74.100563, 40.828248], [-74.09835, 40.823488], [-74.094495, 40.815015], [-74.092339, 40.810362], [-74.089055, 40.803328], [-74.08591, 40.796428], [-74.083887, 40.792024], [-74.083586, 40.791424], [-74.082465, 40.789295], [-74.082271, 40.78887], [-74.080836, 40.785787], [-74.080608, 40.785179], [-74.080234, 40.78411], [-74.080138, 40.783699], [-74.080097, 40.783247], [-74.080106, 40.782792], [-74.080166, 40.78234], [-74.08028, 40.781918], [-74.080519, 40.78154], [-74.085738, 40.778027], [-74.086089, 40.777676], [-74.086351, 40.777317], [-74.086558, 40.776922], [-74.086712, 40.776503], [-74.0868, 40.776067], [-74.086827, 40.775643], [-74.086796, 40.775226], [-74.0867, 40.77479], [-74.086542, 40.774374], [-74.082621, 40.769532], [-74.080689, 40.7672], [-74.075825, 40.761185], [-74.075102, 40.760294], [-74.074802, 40.759935], [-74.073689, 40.758675], [-74.073008, 40.757902], [-74.072391, 40.757148], [-74.071532, 40.755871], [-74.07085, 40.754532], [-74.070357, 40.753145], [-74.069724, 40.750892], [-74.069308, 40.749418], [-74.068338, 40.74625], [-74.067487, 40.743477], [-74.067311, 40.742811], [-74.067205, 40.742332], [-74.066983, 40.74183], [-74.066569, 40.741406], [-74.066001, 40.741099], [-74.064221, 40.740592], [-74.063301, 40.740392], [-74.062389, 40.740197], [-74.047514, 40.737018], [-74.046233, 40.736794], [-74.042036, 40.735873], [-74.036954, 40.734823], [-74.036206, 40.734733], [-74.028046, 40.73484]]}}, {"type": "Feature", "properties": {"route": "MNE", "color": "#08A652", "name": "Morris & Essex Line"}, "geometry": {"type": "LineString", "coordinates": [[-74.835352, 40.851444], [-74.834794, 40.852017], [-74.833057, 40.853806], [-74.82807, 40.858873], [-74.826604, 40.86015], [-74.825324, 40.861027], [-74.823932, 40.861797], [-74.822442, 40.862452], [-74.820633, 40.863153], [-74.819716, 40.86357], [-74.81906, 40.863959], [-74.818458, 40.864394], [-74.817921, 40.864877], [-74.817453, 40.8654], [-74.817057, 40.865956], [-74.816741, 40.866543], [-74.813747, 40.873062], [-74.813551, 40.873522], [-74.811297, 40.878274], [-74.810905, 40.878978], [-74.810208, 40.879965], [-74.80938, 40.880894], [-74.808426, 40.881749], [-74.807363, 40.882527], [-74.803713, 40.884922], [-74.802117, 40.885829], [-74.801043, 40.886363], [-74.799912, 40.886876], [-74.79841, 40.887421], [-74.79684, 40.887843], [-74.792083, 40.888912], [-74.790817, 40.88929], [-74.790092, 40.889599], [-74.789409, 40.889964], [-74.788785, 40.89038], [-74.788379, 40.890682], [-74.78786, 40.891172], [-74.787467, 40.891723], [-74.786407, 40.892918], [-74.786007, 40.893321], [-74.785492, 40.893743], [-74.784926, 40.894124], [-74.784305, 40.894455], [-74.780895, 40.896091], [-74.761949, 40.904956], [-74.761343, 40.905296], [-74.758321, 40.907683], [-74.75778, 40.908069], [-74.757264, 40.908359], [-74.752596, 40.910713], [-74.751892, 40.911017], [-74.751352, 40.911187], [-74.750786, 40.911313], [-74.750209, 40.911396], [-74.749625, 40.911431], [-74.749038, 40.911417], [-74.748454, 40.91136], [-74.747885, 40.911256], [-74.747331, 40.911108], [-74.746802, 40.910916], [-74.744461, 40.909951], [-74.743621, 40.909672], [-74.743074, 40.909557], [-74.742512, 40.909483], [-74.734489, 40.908757], [-74.733623, 40.908633], [-74.732953, 40.908477], [-74.732312, 40.908266], [-74.731699, 40.908006], [-74.731127, 40.907699], [-74.73065, 40.907378], [-74.730129, 40.906956], [-74.729709, 40.906529], [-74.729351, 40.906071], [-74.726393, 40.901788], [-74.726032, 40.901109], [-74.725867, 40.900388], [-74.725902, 40.899656], [-74.726136, 40.898947], [-74.727091, 40.896965], [-74.727328, 40.896234], [-74.727359, 40.895505], [-74.727187, 40.894784], [-74.726819, 40.894107], [-74.726277, 40.893502], [-74.725582, 40.892995], [-74.72476, 40.892611], [-74.723855, 40.892364], [-74.722898, 40.892266], [-74.719617, 40.892433], [-74.718674, 40.892532], [-74.717924, 40.89268], [-74.717198, 40.892888], [-74.716505, 40.893151], [-74.715851, 40.893469], [-74.709864, 40.896719], [-74.708808, 40.897185], [-74.708159, 40.897382], [-74.707484, 40.897527], [-74.706795, 40.897617], [-74.706095, 40.897653], [-74.703503, 40.897681], [-74.701143, 40.89759], [-74.700251, 40.897587], [-74.699309, 40.897659], [-74.69838, 40.897807], [-74.69748, 40.898026], [-74.696613, 40.898314], [-74.69535, 40.898796], [-74.693985, 40.89921], [-74.688854, 40.900996], [-74.68596, 40.902139], [-74.684359, 40.90281], [-74.683619, 40.903153], [-74.68274, 40.903649], [-74.681929, 40.904213], [-74.681228, 40.904759], [-74.680366, 40.905359], [-74.67948, 40.905849], [-74.678016, 40.906581], [-74.677316, 40.906896], [-74.676343, 40.90725], [-74.675327, 40.907524], [-74.674278, 40.907715], [-74.673208, 40.907822], [-74.672312, 40.907877], [-74.671409, 40.907883], [-74.67075, 40.907825], [-74.670101, 40.907715], [-74.669474, 40.907554], [-74.668873, 40.907345], [-74.668301, 40.907088], [-74.667585, 40.906666], [-74.667129, 40.906321], [-74.666724, 40.905942], [-74.666374, 40.905531], [-74.666082, 40.905096], [-74.665852, 40.904641], [-74.665557, 40.9038], [-74.665418, 40.90309], [-74.664862, 40.898574], [-74.664723, 40.897755], [-74.664411, 40.896716], [-74.663962, 40.89571], [-74.663713, 40.895239], [-74.663183, 40.894428], [-74.66275, 40.893937], [-74.662252, 40.893488], [-74.661695, 40.893077], [-74.661083, 40.892715], [-74.660425, 40.892403], [-74.65973, 40.892142], [-74.658998, 40.891942], [-74.658245, 40.8918], [-74.657477, 40.891718], [-74.655559, 40.891641], [-74.652746, 40.891718], [-74.649957, 40.892016], [-74.647222, 40.892534], [-74.646348, 40.89274], [-74.632836, 40.896557], [-74.624467, 40.898933], [-74.60782, 40.903698], [-74.606557, 40.904027], [-74.603625, 40.904608], [-74.598922, 40.905342], [-74.59807, 40.905438], [-74.597094, 40.90549], [-74.596405, 40.905518], [-74.591006, 40.905644], [-74.590201, 40.905619], [-74.589473, 40.905537], [-74.588759, 40.905394], [-74.588064, 40.9052], [-74.587406, 40.904948], [-74.571932, 40.898294], [-74.570973, 40.897796], [-74.570442, 40.897426], [-74.569966, 40.897017], [-74.569547, 40.896573], [-74.569191, 40.896099], [-74.568903, 40.895601], [-74.568685, 40.89508], [-74.568539, 40.894546], [-74.567333, 40.888487], [-74.567169, 40.887903], [-74.566937, 40.887358], [-74.566627, 40.886832], [-74.566246, 40.886336], [-74.565802, 40.88587], [-74.565293, 40.885445], [-74.563542, 40.884116], [-74.562765, 40.883637], [-74.561828, 40.883264], [-74.560807, 40.883047], [-74.559753, 40.882995], [-74.555887, 40.883409], [-74.545656, 40.884555], [-74.544902, 40.884609], [-74.544145, 40.884604], [-74.543391, 40.884538], [-74.542652, 40.884415], [-74.541936, 40.884231], [-74.541248, 40.883993], [-74.540594, 40.8837], [-74.532993, 40.879836], [-74.532339, 40.879545], [-74.531651, 40.87931], [-74.530931, 40.879129], [-74.530192, 40.879006], [-74.529439, 40.878943], [-74.528681, 40.87894], [-74.527927, 40.878995], [-74.527187, 40.879112], [-74.519709, 40.8806], [-74.519005, 40.880707], [-74.518288, 40.880759], [-74.51757, 40.880754], [-74.516856, 40.880691], [-74.516154, 40.88057], [-74.515474, 40.880398], [-74.514819, 40.88017], [-74.514197, 40.879893], [-74.513619, 40.879567], [-74.513092, 40.879197], [-74.512374, 40.87863], [-74.511963, 40.878334], [-74.511511, 40.878074], [-74.511023, 40.877849], [-74.510513, 40.877666], [-74.509974, 40.877523], [-74.509424, 40.877424], [-74.508859, 40.87737], [-74.508294, 40.877359], [-74.507724, 40.877394], [-74.507169, 40.877477], [-74.506625, 40.8776], [-74.506102, 40.877767], [-74.505604, 40.877972], [-74.505135, 40.878219], [-74.500005, 40.881532], [-74.499151, 40.882031], [-74.498227, 40.882456], [-74.497254, 40.882809], [-74.496237, 40.88308], [-74.495189, 40.883272], [-74.494119, 40.883376], [-74.489503, 40.883606], [-74.484958, 40.88373], [-74.482859, 40.883785], [-74.481748, 40.883486], [-74.481177, 40.883228], [-74.48069, 40.882886], [-74.480304, 40.882475], [-74.480043, 40.882009], [-74.479912, 40.881513], [-74.479922, 40.881009], [-74.48003, 40.880576], [-74.480506, 40.879228], [-74.481912, 40.875904], [-74.48314, 40.87301], [-74.483317, 40.872508], [-74.483422, 40.871999], [-74.483473, 40.871429], [-74.483434, 40.870683], [-74.483267, 40.870127], [-74.48307, 40.869722], [-74.482585, 40.869069], [-74.481937, 40.86851], [-74.481146, 40.868066], [-74.473952, 40.865428], [-74.473327, 40.865134], [-74.472793, 40.864748], [-74.472379, 40.864285], [-74.472096, 40.863767], [-74.471966, 40.863216], [-74.471988, 40.862657], [-74.472143, 40.86215], [-74.474136, 40.85762], [-74.476296, 40.852477], [-74.476691, 40.851795], [-74.477264, 40.851186], [-74.478433, 40.850211], [-74.478892, 40.849789], [-74.479286, 40.849331], [-74.479615, 40.848846], [-74.479876, 40.848336], [-74.480064, 40.84781], [-74.48018, 40.84727], [-74.480223, 40.846728], [-74.480187, 40.846183], [-74.478878, 40.840069], [-74.478725, 40.839011], [-74.478721, 40.837948], [-74.47885, 40.836433], [-74.478877, 40.835142], [-74.478836, 40.834605], [-74.478204, 40.828713], [-74.477305, 40.820295], [-74.47712, 40.818106], [-74.477093, 40.817243], [-74.477189, 40.816385], [-74.477278, 40.81596], [-74.47762, 40.814598], [-74.477774, 40.813743], [-74.477812, 40.812883], [-74.477698, 40.810937], [-74.477714, 40.810104], [-74.477846, 40.809277], [-74.478273, 40.807649], [-74.478434, 40.806827], [-74.478479, 40.805994], [-74.478408, 40.805161], [-74.478225, 40.804339], [-74.47793, 40.803539], [-74.477583, 40.802856], [-74.475649, 40.79954], [-74.474438, 40.797592], [-74.474162, 40.797214], [-74.473552, 40.796395], [-74.472937, 40.79574], [-74.472155, 40.7952], [-74.471296, 40.794811], [-74.463839, 40.792161], [-74.456693, 40.789558], [-74.455964, 40.789251], [-74.455282, 40.788889], [-74.454652, 40.788478], [-74.454083, 40.788015], [-74.452332, 40.786357], [-74.447459, 40.781805], [-74.446555, 40.781068], [-74.445921, 40.780633], [-74.443439, 40.779038], [-74.439861, 40.776741], [-74.437321, 40.775248], [-74.430895, 40.771979], [-74.430131, 40.771557], [-74.429429, 40.771077], [-74.4289, 40.770642], [-74.428336, 40.770132], [-74.427688, 40.769606], [-74.426975, 40.769137], [-74.424398, 40.767772], [-74.4238, 40.767422], [-74.423253, 40.767024], [-74.422764, 40.766586], [-74.419294, 40.762621], [-74.417422, 40.759867], [-74.416479, 40.758634], [-74.415138, 40.757069], [-74.413528, 40.755526], [-74.4097, 40.752243], [-74.405817, 40.748971], [-74.404202, 40.747722], [-74.4034, 40.74719], [-74.401395, 40.745924], [-74.398898, 40.744582], [-74.396861, 40.743688], [-74.39307, 40.742365], [-74.389926, 40.741529], [-74.385202, 40.740268], [-74.383063, 40.739512], [-74.382569, 40.739315], [-74.382108, 40.739076], [-74.381683, 40.738805], [-74.381295, 40.738501], [-74.38095, 40.738167], [-74.380653, 40.737808], [-74.38041, 40.737427], [-74.380222, 40.737029], [-74.380084, 40.736618], [-74.380007, 40.736196], [-74.379985, 40.735774], [-74.380025, 40.735352], [-74.380122, 40.734933], [-74.380274, 40.734528], [-74.382343, 40.730656], [-74.382984, 40.729617], [-74.383769, 40.728633], [-74.384488, 40.727896], [-74.3879, 40.724687], [-74.388294, 40.724282], [-74.38863, 40.723843], [-74.388905, 40.723383], [-74.389111, 40.722903], [-74.389252, 40.722407], [-74.389328, 40.721906], [-74.389329, 40.721399], [-74.389264, 40.720897], [-74.38913, 40.720401], [-74.388928, 40.719919], [-74.38866, 40.719456], [-74.388331, 40.719018], [-74.387944, 40.718607], [-74.387498, 40.718228], [-74.387009, 40.717889], [-74.386473, 40.71759], [-74.3859, 40.717335], [-74.385294, 40.717127], [-74.384663, 40.716968], [-74.384013, 40.716861], [-74.383351, 40.716803], [-74.382686, 40.716803], [-74.382024, 40.716853], [-74.381376, 40.716957], [-74.375249, 40.718196], [-74.374695, 40.718283], [-74.374131, 40.718327], [-74.371737, 40.718335], [-74.366383, 40.718349], [-74.365519, 40.718283], [-74.357807, 40.716543], [-74.353574, 40.715584], [-74.35272, 40.715305], [-74.350825, 40.714491], [-74.349952, 40.714208], [-74.349096, 40.714091], [-74.348232, 40.71411], [-74.347388, 40.714266], [-74.346605, 40.714551], [-74.345918, 40.714954], [-74.341466, 40.718182], [-74.341037, 40.718527], [-74.340647, 40.718916], [-74.340314, 40.719333], [-74.340039, 40.719774], [-74.339826, 40.720234], [-74.339677, 40.720711], [-74.3394, 40.721862], [-74.339273, 40.722289], [-74.339048, 40.722807], [-74.338751, 40.723306], [-74.338393, 40.723777], [-74.337966, 40.724219], [-74.337485, 40.724621], [-74.336951, 40.724986], [-74.33637, 40.725304], [-74.334998, 40.72592], [-74.333855, 40.726348], [-74.333032, 40.726562], [-74.332185, 40.726707], [-74.331324, 40.726786], [-74.330452, 40.726794], [-74.329588, 40.726734], [-74.328736, 40.726605], [-74.327906, 40.726411], [-74.323801, 40.72526], [-74.32299, 40.72503], [-74.321986, 40.724794], [-74.32095, 40.724635], [-74.319899, 40.724561], [-74.314071, 40.724386], [-74.312907, 40.724408], [-74.312096, 40.724504], [-74.311299, 40.724663], [-74.310527, 40.724885], [-74.308474, 40.7256], [-74.307619, 40.725835], [-74.307065, 40.725923], [-74.3065, 40.72597], [-74.305932, 40.72597], [-74.305372, 40.725923], [-74.304816, 40.725833], [-74.303817, 40.72563], [-74.298919, 40.72463], [-74.29762, 40.724364], [-74.296591, 40.724197], [-74.295691, 40.724125], [-74.294783, 40.724128], [-74.293882, 40.724205], [-74.292995, 40.72435], [-74.292136, 40.724564], [-74.291309, 40.724849], [-74.276858, 40.730502], [-74.275427, 40.731146], [-74.274391, 40.731749], [-74.273462, 40.732423], [-74.272627, 40.733166], [-74.270608, 40.735171], [-74.264824, 40.740701], [-74.264023, 40.741586], [-74.260586, 40.745894], [-74.253024, 40.755367], [-74.24523, 40.765134], [-74.244937, 40.765487], [-74.243741, 40.766863], [-74.24303, 40.767685], [-74.241271, 40.769592], [-74.24069, 40.770146], [-74.240118, 40.770579], [-74.239492, 40.770965], [-74.238619, 40.77137], [-74.237959, 40.771598], [-74.237269, 40.771771], [-74.236563, 40.771886], [-74.235842, 40.771946], [-74.235107, 40.771987], [-74.234109, 40.771973], [-74.233136, 40.771883], [-74.232143, 40.77171], [-74.230224, 40.771129], [-74.228656, 40.770494], [-74.22718, 40.769732], [-74.219274, 40.76549], [-74.218612, 40.765134], [-74.210966, 40.761031], [-74.210218, 40.760645], [-74.208903, 40.760081], [-74.207515, 40.759623], [-74.192644, 40.755408], [-74.191617, 40.755047], [-74.19098, 40.754737], [-74.190387, 40.754381], [-74.189417, 40.753718], [-74.187934, 40.752701], [-74.186759, 40.751978], [-74.186004, 40.751588], [-74.184798, 40.751008], [-74.18348, 40.750443], [-74.182262, 40.750037], [-74.179958, 40.749361], [-74.179377, 40.749213], [-74.172127, 40.747662], [-74.171518, 40.74753], [-74.170853, 40.747418], [-74.170177, 40.747357], [-74.169498, 40.747349], [-74.166436, 40.747494], [-74.165756, 40.7475], [-74.165076, 40.747451], [-74.164412, 40.747349], [-74.163763, 40.747193], [-74.163139, 40.746988], [-74.162545, 40.746735], [-74.161991, 40.746434], [-74.161482, 40.746091], [-74.158117, 40.743535], [-74.15759, 40.743176], [-74.157007, 40.74285], [-74.156378, 40.742573], [-74.155715, 40.742346], [-74.155026, 40.742176], [-74.154318, 40.742061], [-74.153595, 40.742], [-74.152872, 40.742], [-74.149797, 40.742115], [-74.146475, 40.742274], [-74.140658, 40.742694], [-74.136089, 40.743091], [-74.13022, 40.743557], [-74.127961, 40.743735], [-74.126047, 40.743823], [-74.117224, 40.743924], [-74.116591, 40.743946], [-74.115824, 40.743973], [-74.097098, 40.74531], [-74.091329, 40.745595], [-74.089817, 40.745606], [-74.088313, 40.7455], [-74.08683, 40.745272], [-74.080956, 40.744044], [-74.079629, 40.743757], [-74.078409, 40.743527], [-74.074982, 40.742809], [-74.074336, 40.742685], [-74.071929, 40.742269], [-74.071081, 40.742102], [-74.066097, 40.740995], [-74.064221, 40.740592], [-74.063301, 40.740392], [-74.062389, 40.740197], [-74.047514, 40.737018], [-74.046233, 40.736794], [-74.042036, 40.735873], [-74.036954, 40.734823], [-74.036206, 40.734733], [-74.028046, 40.73484]]}}, {"type": "Feature", "properties": {"route": "MNEG", "color": "#A4C9AA", "name": "Gladstone Branch"}, "geometry": {"type": "LineString", "coordinates": [[-74.028046, 40.734843], [-74.035942, 40.73473], [-74.036585, 40.734766], [-74.042036, 40.735873], [-74.046233, 40.736794], [-74.047236, 40.736975], [-74.062389, 40.740197], [-74.063301, 40.740392], [-74.064142, 40.740573], [-74.066097, 40.740995], [-74.071081, 40.742102], [-74.071929, 40.742269], [-74.074336, 40.742685], [-74.074982, 40.742809], [-74.078211, 40.743488], [-74.079503, 40.743729], [-74.080924, 40.744036], [-74.086584, 40.745223], [-74.088313, 40.7455], [-74.089817, 40.745606], [-74.091329, 40.745595], [-74.096663, 40.745338], [-74.11552, 40.743992], [-74.116088, 40.743976], [-74.116718, 40.74394], [-74.126047, 40.743823], [-74.127961, 40.743735], [-74.13022, 40.743557], [-74.135864, 40.743107], [-74.140245, 40.742726], [-74.146011, 40.742304], [-74.149605, 40.742124], [-74.152872, 40.742], [-74.153595, 40.742], [-74.154318, 40.742061], [-74.155026, 40.742176], [-74.155715, 40.742346], [-74.156378, 40.742573], [-74.157007, 40.74285], [-74.15759, 40.743176], [-74.158117, 40.743535], [-74.161439, 40.746059], [-74.161991, 40.746434], [-74.162545, 40.746735], [-74.163139, 40.746988], [-74.163763, 40.747193], [-74.164412, 40.747349], [-74.165076, 40.747451], [-74.165756, 40.7475], [-74.166436, 40.747494], [-74.169349, 40.747355], [-74.170177, 40.747357], [-74.170853, 40.747418], [-74.171518, 40.74753], [-74.172127, 40.747662], [-74.179377, 40.749213], [-74.179958, 40.749361], [-74.182262, 40.750037], [-74.18348, 40.750443], [-74.184798, 40.751008], [-74.186004, 40.751588], [-74.186759, 40.751978], [-74.187934, 40.752701], [-74.189346, 40.753666], [-74.190247, 40.754285], [-74.190764, 40.754608], [-74.191617, 40.755047], [-74.192294, 40.755302], [-74.207515, 40.759623], [-74.208903, 40.760081], [-74.210218, 40.760645], [-74.210805, 40.760944], [-74.218612, 40.765134], [-74.219274, 40.76549], [-74.22718, 40.769732], [-74.228656, 40.770494], [-74.230224, 40.771129], [-74.231872, 40.771642], [-74.233118, 40.771883], [-74.234109, 40.771973], [-74.235107, 40.771987], [-74.235842, 40.771946], [-74.236563, 40.771886], [-74.237269, 40.771771], [-74.237959, 40.771598], [-74.238619, 40.77137], [-74.239245, 40.771094], [-74.240118, 40.770579], [-74.24069, 40.770146], [-74.241198, 40.769669], [-74.242774, 40.76797], [-74.24373, 40.766876], [-74.244937, 40.765487], [-74.24523, 40.765134], [-74.252991, 40.755411], [-74.260586, 40.745894], [-74.264023, 40.741586], [-74.264747, 40.740778], [-74.270349, 40.735429], [-74.272627, 40.733166], [-74.273462, 40.732423], [-74.274391, 40.731749], [-74.275409, 40.731154], [-74.276502, 40.730645], [-74.291309, 40.724849], [-74.292136, 40.724564], [-74.292995, 40.72435], [-74.293882, 40.724205], [-74.294783, 40.724128], [-74.295691, 40.724125], [-74.296591, 40.724197], [-74.297479, 40.724336], [-74.298919, 40.72463], [-74.303755, 40.725619], [-74.304816, 40.725833], [-74.305372, 40.725923], [-74.305932, 40.72597], [-74.3065, 40.72597], [-74.307065, 40.725923], [-74.307619, 40.725835], [-74.308155, 40.725701], [-74.310527, 40.724885], [-74.311299, 40.724663], [-74.312096, 40.724504], [-74.312907, 40.724408], [-74.313732, 40.724378], [-74.319899, 40.724561], [-74.32095, 40.724635], [-74.321986, 40.724794], [-74.32299, 40.72503], [-74.323754, 40.725246], [-74.327906, 40.726411], [-74.328736, 40.726605], [-74.329588, 40.726734], [-74.330452, 40.726794], [-74.331324, 40.726786], [-74.332185, 40.726707], [-74.333032, 40.726562], [-74.333855, 40.726348], [-74.334642, 40.726071], [-74.33637, 40.725304], [-74.336951, 40.724986], [-74.337485, 40.724621], [-74.337966, 40.724219], [-74.338393, 40.723777], [-74.338751, 40.723306], [-74.339048, 40.722807], [-74.339273, 40.722289], [-74.3394, 40.721862], [-74.339677, 40.720711], [-74.339826, 40.720234], [-74.340039, 40.719774], [-74.340314, 40.719333], [-74.340647, 40.718916], [-74.341037, 40.718527], [-74.341466, 40.718182], [-74.345918, 40.714954], [-74.346605, 40.714551], [-74.347388, 40.714266], [-74.348232, 40.71411], [-74.349096, 40.714091], [-74.349952, 40.714208], [-74.350753, 40.714461], [-74.35272, 40.715305], [-74.353513, 40.715568], [-74.357757, 40.716532], [-74.365183, 40.718217], [-74.365949, 40.718333], [-74.371737, 40.718335], [-74.373889, 40.718333], [-74.375301, 40.718058], [-74.375892, 40.717875], [-74.381949, 40.715811], [-74.38262, 40.715548], [-74.383252, 40.715233], [-74.383698, 40.714967], [-74.384312, 40.714554], [-74.384822, 40.714129], [-74.385631, 40.713318], [-74.386106, 40.712696], [-74.38645, 40.712109], [-74.386785, 40.711359], [-74.38958, 40.702817], [-74.389862, 40.702222], [-74.390304, 40.701688], [-74.390878, 40.701236], [-74.391568, 40.700882], [-74.392336, 40.700644], [-74.39315, 40.700534], [-74.393949, 40.700493], [-74.394484, 40.700447], [-74.395009, 40.700356], [-74.395516, 40.700225], [-74.396006, 40.700055], [-74.396466, 40.699844], [-74.396898, 40.699597], [-74.397294, 40.699321], [-74.397647, 40.699014], [-74.399097, 40.697539], [-74.399577, 40.697095], [-74.400119, 40.696695], [-74.400714, 40.696339], [-74.403225, 40.695024], [-74.407775, 40.69264], [-74.419204, 40.686469], [-74.419944, 40.686025], [-74.42329, 40.68352], [-74.423842, 40.683147], [-74.424437, 40.682819], [-74.425079, 40.682542], [-74.425753, 40.682317], [-74.426455, 40.682147], [-74.427175, 40.682035], [-74.427905, 40.681977], [-74.428642, 40.681983], [-74.438155, 40.682734], [-74.43925, 40.682778], [-74.440341, 40.682731], [-74.441423, 40.682602], [-74.442479, 40.682386], [-74.4435, 40.682087], [-74.444388, 40.681744], [-74.44766, 40.680339], [-74.448302, 40.680095], [-74.448971, 40.679903], [-74.449666, 40.679769], [-74.450375, 40.679686], [-74.450993, 40.679662], [-74.456919, 40.679651], [-74.458802, 40.679574], [-74.460209, 40.679415], [-74.468296, 40.678256], [-74.492837, 40.674713], [-74.49359, 40.674598], [-74.506854, 40.672723], [-74.510147, 40.672392], [-74.512405, 40.672318], [-74.519288, 40.672332], [-74.520003, 40.672364], [-74.520711, 40.672449], [-74.521404, 40.672595], [-74.522071, 40.672792], [-74.522709, 40.673039], [-74.523311, 40.673337], [-74.523865, 40.673683], [-74.524369, 40.674072], [-74.524822, 40.674496], [-74.52521, 40.674954], [-74.525744, 40.675727], [-74.526092, 40.676171], [-74.526494, 40.676587], [-74.526954, 40.676968], [-74.527465, 40.677311], [-74.528373, 40.677804], [-74.53496, 40.681775], [-74.535465, 40.682049], [-74.536009, 40.682282], [-74.536582, 40.682471], [-74.537174, 40.682613], [-74.537784, 40.682706], [-74.541443, 40.683071], [-74.542086, 40.683109], [-74.542841, 40.683142], [-74.545503, 40.683389], [-74.546211, 40.683482], [-74.5469, 40.683632], [-74.547564, 40.683838], [-74.548199, 40.684093], [-74.548793, 40.684397], [-74.549344, 40.684748], [-74.549845, 40.68514], [-74.550283, 40.68557], [-74.550667, 40.686033], [-74.550979, 40.686521], [-74.551226, 40.687036], [-74.5514, 40.687565], [-74.551502, 40.688105], [-74.551528, 40.68865], [-74.55132, 40.693259], [-74.551358, 40.694895], [-74.551621, 40.696523], [-74.55527, 40.711378], [-74.556167, 40.714872], [-74.55641, 40.715387], [-74.556718, 40.715877], [-74.557096, 40.716343], [-74.557535, 40.716776], [-74.558028, 40.717171], [-74.558576, 40.717524], [-74.559167, 40.717834], [-74.559798, 40.718091], [-74.560459, 40.7183], [-74.561149, 40.718456], [-74.561853, 40.718554], [-74.562569, 40.718596], [-74.563288, 40.718582], [-74.566341, 40.718269], [-74.567416, 40.718113], [-74.568462, 40.717875], [-74.569472, 40.717552], [-74.570432, 40.717151], [-74.571023, 40.716845], [-74.573373, 40.715474], [-74.579933, 40.711243], [-74.580401, 40.710906], [-74.580822, 40.710536], [-74.581186, 40.710136], [-74.581495, 40.709709], [-74.581743, 40.709257], [-74.581926, 40.708791], [-74.582426, 40.707144], [-74.582674, 40.706588], [-74.583074, 40.706084], [-74.5836, 40.705653], [-74.584231, 40.705316], [-74.584944, 40.705083], [-74.5857, 40.704974], [-74.586474, 40.704982], [-74.587088, 40.705081], [-74.587662, 40.705209], [-74.588305, 40.70533], [-74.588959, 40.705396], [-74.58962, 40.705409], [-74.590278, 40.705371], [-74.590929, 40.705281], [-74.591562, 40.705141], [-74.592174, 40.704949], [-74.592667, 40.704752], [-74.598484, 40.702168], [-74.599306, 40.701757], [-74.600067, 40.701285], [-74.600756, 40.700754], [-74.60137, 40.70017], [-74.603869, 40.697315], [-74.604476, 40.696693], [-74.605165, 40.69612], [-74.60593, 40.695607], [-74.612724, 40.691552], [-74.613869, 40.690938], [-74.615089, 40.690423], [-74.616985, 40.689771], [-74.626651, 40.686584], [-74.628138, 40.686164], [-74.629672, 40.685863], [-74.631056, 40.685701], [-74.631649, 40.685652], [-74.632365, 40.685622], [-74.63308, 40.685649], [-74.633734, 40.685704], [-74.636375, 40.685929], [-74.637455, 40.686036], [-74.637989, 40.686126], [-74.638513, 40.68628], [-74.639574, 40.686614], [-74.640494, 40.687017], [-74.641352, 40.687466], [-74.642181, 40.688], [-74.642902, 40.68859], [-74.643564, 40.689231], [-74.644125, 40.689932], [-74.644571, 40.69068], [-74.644936, 40.69145], [-74.645802, 40.69384], [-74.646146, 40.694509], [-74.646664, 40.695106], [-74.647299, 40.695621], [-74.64793, 40.695966], [-74.648536, 40.696175], [-74.649475, 40.696369], [-74.652174, 40.696536], [-74.652901, 40.696594], [-74.653616, 40.696684], [-74.654309, 40.696868], [-74.654977, 40.697106], [-74.655608, 40.697397], [-74.656193, 40.697737], [-74.65673, 40.69812], [-74.657209, 40.698545], [-74.65763, 40.699005], [-74.657983, 40.699496], [-74.65827, 40.700014], [-74.658481, 40.700551], [-74.65862, 40.701099], [-74.658676, 40.701576], [-74.658652, 40.702253], [-74.658074, 40.705163], [-74.658013, 40.706062], [-74.658036, 40.70678], [-74.658156, 40.707489], [-74.658466, 40.708774], [-74.659463, 40.71291], [-74.659724, 40.713748], [-74.660101, 40.714562], [-74.660586, 40.71534], [-74.661176, 40.716077], [-74.661864, 40.716762], [-74.662333, 40.717154], [-74.666371, 40.720284]]}}, {"type": "Feature", "properties": {"route": "MRL", "color": "#C1AA72", "name": "Meadowlands Rail Line"}, "geometry": {"type": "LineString", "coordinates": [[-74.072114, 40.813053], [-74.075821, 40.761188], [-74.028046, 40.734843]]}}, {"type": "Feature", "properties": {"route": "NEC", "color": "#DD3439", "name": "Northeast Corridor"}, "geometry": {"type": "LineString", "coordinates": [[-73.992358, 40.750046], [-74.02259, 40.762999], [-74.040425, 40.770631], [-74.042505, 40.771524], [-74.043571, 40.771921], [-74.044638, 40.772217], [-74.045736, 40.772428], [-74.04686, 40.772549], [-74.047992, 40.772579], [-74.049125, 40.772521], [-74.050241, 40.772373], [-74.05133, 40.772135], [-74.052383, 40.771814], [-74.053384, 40.771412], [-74.075821, 40.761188], [-74.085724, 40.756672], [-74.088091, 40.755737], [-74.112843, 40.747399], [-74.113384, 40.74722], [-74.114637, 40.746807], [-74.118188, 40.745639], [-74.121701, 40.744617], [-74.12607, 40.743699], [-74.130544, 40.743132], [-74.137017, 40.742576], [-74.150778, 40.741392], [-74.15143, 40.74131], [-74.152068, 40.741175], [-74.152681, 40.740992], [-74.153269, 40.740762], [-74.153819, 40.740485], [-74.156014, 40.7392], [-74.158266, 40.737961], [-74.159419, 40.737366], [-74.159921, 40.737098], [-74.161581, 40.736172], [-74.162043, 40.735911], [-74.162494, 40.735646], [-74.162931, 40.735372], [-74.163361, 40.735092], [-74.163784, 40.734804], [-74.1642, 40.734511], [-74.164655, 40.734169], [-74.165071, 40.733829], [-74.16548, 40.733483], [-74.165878, 40.73313], [-74.166266, 40.732771], [-74.166642, 40.732407], [-74.167008, 40.732037], [-74.170772, 40.728074], [-74.172811, 40.726115], [-74.174309, 40.724747], [-74.178051, 40.721141], [-74.18181, 40.717554], [-74.182635, 40.716773], [-74.183249, 40.716165], [-74.184487, 40.714721], [-74.185504, 40.713216], [-74.190717, 40.704415], [-74.196919, 40.693939], [-74.19873, 40.69076], [-74.199355, 40.689757], [-74.201719, 40.686266], [-74.202123, 40.685704], [-74.206165, 40.680265], [-74.206539, 40.67976], [-74.215174, 40.667857], [-74.215794, 40.666999], [-74.216289, 40.666224], [-74.216673, 40.665412], [-74.216897, 40.66476], [-74.217182, 40.663752], [-74.217479, 40.662921], [-74.217888, 40.662116], [-74.218409, 40.661351], [-74.219027, 40.660628], [-74.251776, 40.629482], [-74.264561, 40.617315], [-74.271614, 40.61093], [-74.2768, 40.606406], [-74.282931, 40.601054], [-74.284609, 40.599588], [-74.289326, 40.595207], [-74.291864, 40.593083], [-74.29303, 40.592244], [-74.308176, 40.581585], [-74.311434, 40.579573], [-74.312244, 40.578987], [-74.312752, 40.578642], [-74.318248, 40.574803], [-74.320291, 40.573468], [-74.322447, 40.572336], [-74.32333, 40.571944], [-74.325815, 40.570788], [-74.328132, 40.569443], [-74.329322, 40.568582], [-74.330248, 40.567916], [-74.332145, 40.566234], [-74.332826, 40.56553], [-74.335391, 40.56246], [-74.336105, 40.561701], [-74.336915, 40.561003], [-74.341438, 40.557572], [-74.342386, 40.556772], [-74.343219, 40.555903], [-74.34393, 40.554969], [-74.344508, 40.553988], [-74.344703, 40.553576], [-74.346213, 40.550176], [-74.34688, 40.548896], [-74.347723, 40.547674], [-74.348724, 40.546528], [-74.34988, 40.545465], [-74.351175, 40.544503], [-74.352596, 40.543648], [-74.354123, 40.542911], [-74.355737, 40.542306], [-74.360422, 40.540768], [-74.370859, 40.537346], [-74.372627, 40.536847], [-74.373483, 40.536642], [-74.37445, 40.536494], [-74.376305, 40.536315], [-74.377207, 40.536239], [-74.378769, 40.536091], [-74.379516, 40.535998], [-74.380285, 40.535872], [-74.381777, 40.535535], [-74.383205, 40.535063], [-74.384515, 40.534504], [-74.389888, 40.531931], [-74.392354, 40.530608], [-74.39954, 40.526168], [-74.410513, 40.519403], [-74.410972, 40.519148], [-74.433575, 40.506542], [-74.435182, 40.505545], [-74.436048, 40.504907], [-74.442135, 40.50024], [-74.444816, 40.49807], [-74.445657, 40.497316], [-74.446288, 40.496754], [-74.467334, 40.476898], [-74.475695, 40.469009], [-74.477903, 40.466682], [-74.479705, 40.464312], [-74.488071, 40.452129], [-74.507037, 40.424493], [-74.519919, 40.405711], [-74.523729, 40.400102], [-74.525167, 40.397713], [-74.52573, 40.396647], [-74.527473, 40.39378], [-74.5296, 40.391073], [-74.532086, 40.388546], [-74.534832, 40.386286], [-74.623753, 40.316316], [-74.667278, 40.281985], [-74.70412, 40.255309], [-74.747243, 40.22404], [-74.750043, 40.22179], [-74.753919, 40.218513]]}}, {"type": "Feature", "properties": {"route": "NJCL", "color": "#03A3DF", "name": "North Jersey Coast Line"}, "geometry": {"type": "LineString", "coordinates": [[-74.046183, 40.077178], [-74.046458, 40.079526], [-74.048198, 40.092718], [-74.050515, 40.110283], [-74.05061, 40.111286], [-74.050587, 40.112894], [-74.050344, 40.114492], [-74.049884, 40.116062], [-74.049216, 40.117586], [-74.047674, 40.120567], [-74.038508, 40.138299], [-74.038062, 40.139327], [-74.037713, 40.140503], [-74.035467, 40.150554], [-74.031387, 40.16879], [-74.030995, 40.17027], [-74.030827, 40.170772], [-74.027298, 40.18059], [-74.018966, 40.203764], [-74.014793, 40.215356], [-74.006766, 40.237653], [-74.00412, 40.245003], [-74.003689, 40.246644], [-74.00353, 40.248075], [-74.003127, 40.257592], [-74.00299, 40.25849], [-74.002803, 40.259049], [-74.002544, 40.259586], [-74.00221, 40.260102], [-74.001809, 40.260589], [-74.001343, 40.261039], [-74.000821, 40.26145], [-73.999516, 40.262371], [-73.998924, 40.262889], [-73.998408, 40.263571], [-73.99761, 40.265289], [-73.990245, 40.281528], [-73.989991, 40.282216], [-73.989834, 40.282925], [-73.988692, 40.29036], [-73.98844, 40.293127], [-73.988342, 40.297142], [-73.988321, 40.297956], [-73.988357, 40.298413], [-73.988547, 40.299], [-73.988896, 40.29954], [-73.989381, 40.300014], [-73.989983, 40.300403], [-74.015198, 40.313389], [-74.022138, 40.316962], [-74.041062, 40.326707], [-74.064345, 40.338693], [-74.065141, 40.339156], [-74.065822, 40.339652], [-74.066433, 40.3402], [-74.074535, 40.348286], [-74.116135, 40.389777], [-74.117038, 40.390676], [-74.117369, 40.390996], [-74.118994, 40.392391], [-74.1208, 40.393649], [-74.122766, 40.394756], [-74.152396, 40.409641], [-74.153191, 40.410003], [-74.154112, 40.410332], [-74.15507, 40.410584], [-74.156058, 40.410756], [-74.190401, 40.415376], [-74.216934, 40.418939], [-74.218263, 40.419136], [-74.221179, 40.419495], [-74.221944, 40.419621], [-74.222734, 40.419816], [-74.223491, 40.42007], [-74.224208, 40.420383], [-74.224877, 40.420756], [-74.225496, 40.421175], [-74.226049, 40.421643], [-74.226537, 40.422156], [-74.230874, 40.427225], [-74.231457, 40.42799], [-74.233281, 40.430659], [-74.23386, 40.431401], [-74.239388, 40.437805], [-74.260923, 40.463049], [-74.261425, 40.463665], [-74.264256, 40.467494], [-74.26509, 40.468455], [-74.26589, 40.469182], [-74.266787, 40.469839], [-74.270149, 40.472012], [-74.270969, 40.47258], [-74.271594, 40.473125], [-74.27214, 40.473717], [-74.272602, 40.474347], [-74.280065, 40.484204], [-74.282671, 40.487643], [-74.283066, 40.488169], [-74.283336, 40.488651], [-74.283544, 40.489153], [-74.283676, 40.489668], [-74.283739, 40.490191], [-74.283735, 40.490715], [-74.283654, 40.491238], [-74.283502, 40.49175], [-74.283281, 40.492246], [-74.282995, 40.492723], [-74.278747, 40.499736], [-74.277689, 40.501544], [-74.273709, 40.509368], [-74.271337, 40.514032], [-74.270505, 40.515922], [-74.267512, 40.523699], [-74.267294, 40.524294], [-74.266905, 40.525735], [-74.266718, 40.527201], [-74.266733, 40.528673], [-74.26695, 40.530139], [-74.267365, 40.531575], [-74.270905, 40.542437], [-74.271154, 40.54315], [-74.271829, 40.544608], [-74.272703, 40.546005], [-74.275656, 40.55034], [-74.276078, 40.551072], [-74.276495, 40.552025], [-74.277297, 40.554234], [-74.277611, 40.55536], [-74.277739, 40.556361], [-74.278309, 40.566006], [-74.278292, 40.567072], [-74.277472, 40.577617], [-74.276976, 40.584054], [-74.276956, 40.58464], [-74.277024, 40.585451], [-74.277204, 40.586257], [-74.277493, 40.587041], [-74.27789, 40.5878], [-74.278385, 40.58852], [-74.278978, 40.589197], [-74.284732, 40.595234], [-74.285057, 40.59562], [-74.285415, 40.59627], [-74.285589, 40.596958], [-74.285568, 40.597662], [-74.285356, 40.598344], [-74.284964, 40.598983], [-74.282931, 40.601054], [-74.276822, 40.606387], [-74.271614, 40.61093], [-74.264561, 40.617315], [-74.251776, 40.629482], [-74.219315, 40.660343], [-74.218409, 40.661351], [-74.217888, 40.662116], [-74.217479, 40.662921], [-74.217182, 40.663752], [-74.216897, 40.66476], [-74.216673, 40.665412], [-74.216289, 40.666224], [-74.215794, 40.666999], [-74.215174, 40.667854], [-74.206649, 40.67961], [-74.206165, 40.680265], [-74.202123, 40.685704], [-74.201719, 40.686266], [-74.199355, 40.689757], [-74.19873, 40.69076], [-74.197047, 40.693719], [-74.190717, 40.704415], [-74.185504, 40.713216], [-74.184487, 40.714721], [-74.183249, 40.716165], [-74.182635, 40.716773], [-74.18185, 40.717519], [-74.178098, 40.721095], [-74.174539, 40.724528], [-74.172811, 40.726115], [-74.170772, 40.728074], [-74.167096, 40.731941], [-74.166733, 40.732313], [-74.166361, 40.732681], [-74.165973, 40.733042], [-74.165579, 40.733396], [-74.165174, 40.733744], [-74.164761, 40.734084], [-74.164302, 40.734434], [-74.16389, 40.734733], [-74.163467, 40.735021], [-74.163041, 40.735303], [-74.162604, 40.735577], [-74.16216, 40.735846], [-74.161581, 40.736172], [-74.159921, 40.737098], [-74.159419, 40.737366], [-74.158648, 40.737758], [-74.156396, 40.738983], [-74.153921, 40.740427], [-74.153269, 40.740762], [-74.152681, 40.740992], [-74.152068, 40.741175], [-74.15143, 40.74131], [-74.150778, 40.741392], [-74.137017, 40.742576], [-74.130544, 40.743132], [-74.12607, 40.743699], [-74.121701, 40.744617], [-74.118188, 40.745639], [-74.114648, 40.746804], [-74.113384, 40.74722], [-74.112843, 40.747399], [-74.088091, 40.755737], [-74.08607, 40.756518], [-74.075825, 40.761185], [-74.053384, 40.771412], [-74.052383, 40.771814], [-74.05133, 40.772135], [-74.050241, 40.772373], [-74.049125, 40.772521], [-74.047992, 40.772579], [-74.04686, 40.772549], [-74.045736, 40.772428], [-74.044638, 40.772217], [-74.043571, 40.771921], [-74.042552, 40.771543], [-74.040425, 40.770631], [-74.02259, 40.762999], [-73.992366, 40.750048], [-73.992358, 40.750046]]}}, {"type": "Feature", "properties": {"route": "PASC", "color": "#94219A", "name": "Pascack Valley Line"}, "geometry": {"type": "LineString", "coordinates": [[-74.043991, 41.111978], [-74.044772, 41.112035], [-74.044158, 41.111992], [-74.043552, 41.111898], [-74.042965, 41.111759], [-74.042396, 41.111572], [-74.041861, 41.111342], [-74.041359, 41.111071], [-74.040894, 41.110761], [-74.040476, 41.110419], [-74.038967, 41.109032], [-74.038503, 41.108649], [-74.037991, 41.108306], [-74.037435, 41.108007], [-74.036838, 41.107752], [-74.036212, 41.107547], [-74.035559, 41.107391], [-74.034888, 41.107289], [-74.031634, 41.106922], [-74.029085, 41.106569], [-74.022125, 41.105725], [-74.021302, 41.105566], [-74.020411, 41.105245], [-74.019628, 41.10479], [-74.018985, 41.104226], [-74.018514, 41.103568], [-74.018232, 41.102853], [-74.018155, 41.10211], [-74.019052, 41.0968], [-74.019087, 41.096065], [-74.019027, 41.09566], [-74.018912, 41.09526], [-74.018739, 41.09487], [-74.018519, 41.094498], [-74.018247, 41.094144], [-74.017925, 41.093815], [-74.017561, 41.093511], [-74.017158, 41.09324], [-74.016263, 41.092697], [-74.015745, 41.092325], [-74.015239, 41.091785], [-74.014891, 41.091179], [-74.014718, 41.090533], [-74.014718, 41.090012], [-74.0148, 41.089549], [-74.015082, 41.088921], [-74.020831, 41.081528], [-74.022228, 41.079774], [-74.023325, 41.078207], [-74.024131, 41.076672], [-74.024719, 41.07508], [-74.025086, 41.073452], [-74.025224, 41.071803], [-74.025134, 41.070153], [-74.024817, 41.06852], [-74.024191, 41.066158], [-74.023408, 41.063283], [-74.022446, 41.05962], [-74.022309, 41.058767], [-74.02232, 41.058184], [-74.022408, 41.057605], [-74.022575, 41.057038], [-74.024867, 41.050832], [-74.025268, 41.049385], [-74.025976, 41.045633], [-74.026171, 41.044904], [-74.026437, 41.044291], [-74.026782, 41.043699], [-74.027211, 41.04314], [-74.029152, 41.040879], [-74.036168, 41.032305], [-74.038202, 41.029814], [-74.03902, 41.028655], [-74.039538, 41.027652], [-74.039918, 41.026613], [-74.04015, 41.02555], [-74.040237, 41.024476], [-74.040281, 41.023626], [-74.040506, 41.022237], [-74.040902, 41.020538], [-74.041502, 41.017998], [-74.042316, 41.014591], [-74.043728, 41.008489], [-74.043829, 41.007727], [-74.043811, 41.007187], [-74.043716, 41.006653], [-74.043548, 41.006129], [-74.043308, 41.005623], [-74.043002, 41.005138], [-74.04104, 41.002411], [-74.032729, 40.990858], [-74.031827, 40.989606], [-74.028038, 40.9843], [-74.027693, 40.983774], [-74.0273, 40.983004], [-74.027016, 40.982207], [-74.026842, 40.98139], [-74.026784, 40.980565], [-74.026838, 40.979741], [-74.027466, 40.975074], [-74.030032, 40.956087], [-74.030099, 40.955421], [-74.030094, 40.954199], [-74.029991, 40.953478], [-74.029917, 40.952985], [-74.029647, 40.951727], [-74.029432, 40.95099], [-74.029133, 40.95031], [-74.028738, 40.949658], [-74.027838, 40.948351], [-74.027515, 40.947819], [-74.027247, 40.947227], [-74.027062, 40.946619], [-74.026962, 40.946], [-74.026948, 40.945375], [-74.027145, 40.941212], [-74.027209, 40.940492], [-74.027441, 40.939357], [-74.02783, 40.938245], [-74.029144, 40.935146], [-74.030233, 40.93257], [-74.030834, 40.931334], [-74.032599, 40.928081], [-74.033006, 40.927188], [-74.033245, 40.926374], [-74.033369, 40.925546], [-74.03338, 40.924713], [-74.033321, 40.92362], [-74.033305, 40.923212], [-74.033382, 40.921488], [-74.034355, 40.91307], [-74.034602, 40.911941], [-74.034928, 40.911113], [-74.040053, 40.900147], [-74.040714, 40.898957], [-74.041456, 40.897955], [-74.041971, 40.897333], [-74.04241, 40.896768], [-74.043072, 40.895735], [-74.043781, 40.894458], [-74.047968, 40.886909], [-74.048205, 40.886456], [-74.051492, 40.87971], [-74.051889, 40.878992], [-74.052687, 40.87783], [-74.053542, 40.876759], [-74.054176, 40.875871], [-74.058675, 40.870091], [-74.062662, 40.864882], [-74.069352, 40.856138], [-74.073866, 40.850274], [-74.0788, 40.843864], [-74.08081, 40.841253], [-74.084036, 40.836975], [-74.086049, 40.83438], [-74.088139, 40.831703], [-74.089901, 40.82947], [-74.09194, 40.826779], [-74.093295, 40.824984], [-74.09418, 40.823619], [-74.094734, 40.822435], [-74.095122, 40.821213], [-74.09534, 40.819966], [-74.095366, 40.819339], [-74.095388, 40.818711], [-74.095294, 40.817796], [-74.095114, 40.81684], [-74.094962, 40.81622], [-74.094495, 40.815015], [-74.092339, 40.810362], [-74.089055, 40.803328], [-74.08591, 40.796428], [-74.083887, 40.792024], [-74.083586, 40.791424], [-74.082465, 40.789295], [-74.082271, 40.78887], [-74.080836, 40.785787], [-74.080608, 40.785179], [-74.080234, 40.78411], [-74.080138, 40.783699], [-74.080097, 40.783247], [-74.080106, 40.782792], [-74.080166, 40.78234], [-74.08028, 40.781918], [-74.080519, 40.78154], [-74.085738, 40.778027], [-74.086089, 40.777676], [-74.086351, 40.777317], [-74.086558, 40.776922], [-74.086712, 40.776503], [-74.0868, 40.776067], [-74.086827, 40.775643], [-74.086796, 40.775226], [-74.0867, 40.77479], [-74.086542, 40.774374], [-74.082621, 40.769532], [-74.080689, 40.7672], [-74.075825, 40.761185], [-74.075102, 40.760294], [-74.074802, 40.759935], [-74.073689, 40.758675], [-74.073008, 40.757902], [-74.072391, 40.757148], [-74.071532, 40.755871], [-74.07085, 40.754532], [-74.070357, 40.753145], [-74.069724, 40.750892], [-74.069308, 40.749418], [-74.068338, 40.74625], [-74.067487, 40.743477], [-74.067311, 40.742811], [-74.067205, 40.742332], [-74.066983, 40.74183], [-74.066569, 40.741406], [-74.066001, 40.741099], [-74.064221, 40.740592], [-74.063301, 40.740392], [-74.062389, 40.740197], [-74.047514, 40.737018], [-74.046233, 40.736794], [-74.042036, 40.735873], [-74.036954, 40.734823], [-74.036206, 40.734733], [-74.028046, 40.73484]]}}, {"type": "Feature", "properties": {"route": "PRIN", "color": "#DD3439", "name": "Princeton Shuttle"}, "geometry": {"type": "LineString", "coordinates": [[-74.623753, 40.316316], [-74.624417, 40.316496], [-74.625097, 40.316538], [-74.625732, 40.316735], [-74.626252, 40.317075], [-74.626566, 40.317445], [-74.627016, 40.318163], [-74.62732, 40.31859], [-74.627681, 40.318993], [-74.628097, 40.319363], [-74.642148, 40.330132], [-74.642987, 40.330707], [-74.643898, 40.331214], [-74.644817, 40.331625], [-74.652441, 40.334607], [-74.652976, 40.334845], [-74.653478, 40.335125], [-74.653937, 40.335443], [-74.654353, 40.335793], [-74.654714, 40.336177], [-74.657541, 40.3398], [-74.65782, 40.340203], [-74.658242, 40.340816], [-74.658799, 40.341882], [-74.65887, 40.342088]]}}, {"type": "Feature", "properties": {"route": "RARV", "color": "#F2A537", "name": "Raritan Valley Line"}, "geometry": {"type": "LineString", "coordinates": [[-74.895863, 40.666884], [-74.895643, 40.66644], [-74.891938, 40.657767], [-74.891454, 40.656841], [-74.887673, 40.65079], [-74.886925, 40.649807], [-74.886286, 40.649165], [-74.885564, 40.648579], [-74.884762, 40.648053], [-74.881599, 40.646184], [-74.881021, 40.64588], [-74.880397, 40.645617], [-74.879732, 40.645403], [-74.87905, 40.645244], [-74.878345, 40.645143], [-74.87763, 40.645093], [-74.876915, 40.645104], [-74.876204, 40.645173], [-74.874141, 40.645452], [-74.873159, 40.64551], [-74.872112, 40.645411], [-74.871115, 40.645148], [-74.86436, 40.642065], [-74.86302, 40.641509], [-74.861626, 40.641065], [-74.860182, 40.640736], [-74.858698, 40.640523], [-74.848125, 40.63944], [-74.847233, 40.639341], [-74.845309, 40.639015], [-74.838698, 40.637514], [-74.835766, 40.636911], [-74.834243, 40.636596], [-74.832853, 40.636366], [-74.829665, 40.635839], [-74.828592, 40.63568], [-74.811714, 40.632965], [-74.810704, 40.632759], [-74.809689, 40.632469], [-74.808719, 40.632096], [-74.807809, 40.63165], [-74.785552, 40.61945], [-74.784729, 40.619052], [-74.783954, 40.618762], [-74.783138, 40.618535], [-74.770664, 40.615613], [-74.690615, 40.596818], [-74.689832, 40.596604], [-74.688877, 40.596264], [-74.687972, 40.595851], [-74.687126, 40.595368], [-74.686355, 40.59482], [-74.685661, 40.594212], [-74.685057, 40.593554], [-74.683799, 40.592022], [-74.677135, 40.583909], [-74.67153, 40.573786], [-74.670945, 40.572926], [-74.670471, 40.572408], [-74.669924, 40.571934], [-74.669316, 40.571501], [-74.668653, 40.571122], [-74.667944, 40.570796], [-74.667191, 40.570531], [-74.666408, 40.570328], [-74.665597, 40.570185], [-74.664775, 40.570109], [-74.663945, 40.570098], [-74.650037, 40.570484], [-74.634371, 40.570991], [-74.62835, 40.571185], [-74.627542, 40.571188], [-74.626413, 40.571117], [-74.625302, 40.570953], [-74.624221, 40.570703], [-74.62318, 40.570369], [-74.62219, 40.569952], [-74.614536, 40.566327], [-74.613978, 40.566069], [-74.612253, 40.56539], [-74.610495, 40.564872], [-74.608675, 40.564496], [-74.601058, 40.563244], [-74.576842, 40.559199], [-74.57553, 40.559019], [-74.573655, 40.558887], [-74.571768, 40.558906], [-74.558156, 40.5596], [-74.551741, 40.559909], [-74.530617, 40.560926], [-74.516416, 40.561605], [-74.513446, 40.561879], [-74.510807, 40.562354], [-74.508245, 40.56303], [-74.505787, 40.563913], [-74.503469, 40.564984], [-74.501308, 40.566234], [-74.463043, 40.590863], [-74.44462, 40.60271], [-74.420163, 40.618422], [-74.403455, 40.629148], [-74.398906, 40.632066], [-74.385228, 40.640917], [-74.383225, 40.642213], [-74.381284, 40.643359], [-74.379359, 40.644258], [-74.377324, 40.644997], [-74.375199, 40.645573], [-74.373004, 40.645976], [-74.352098, 40.648839], [-74.347629, 40.64945], [-74.324841, 40.652561], [-74.314951, 40.653909], [-74.303226, 40.65552], [-74.281902, 40.658444], [-74.281059, 40.658622], [-74.280537, 40.658792], [-74.280044, 40.659], [-74.279579, 40.659247], [-74.266407, 40.6671], [-74.238605, 40.683663], [-74.197303, 40.708243], [-74.196214, 40.708955], [-74.195487, 40.709402], [-74.194236, 40.710046], [-74.193063, 40.710586], [-74.192202, 40.71095], [-74.190823, 40.711422], [-74.189427, 40.711833], [-74.18688, 40.712685], [-74.186135, 40.713022], [-74.185593, 40.713419], [-74.185164, 40.713891], [-74.184878, 40.714299], [-74.18405, 40.715368], [-74.183278, 40.716135], [-74.182635, 40.716773], [-74.18185, 40.717519], [-74.178098, 40.721095], [-74.174539, 40.724528], [-74.172811, 40.726115], [-74.170772, 40.728074], [-74.167096, 40.731941], [-74.166733, 40.732313], [-74.166361, 40.732681], [-74.165973, 40.733042], [-74.165579, 40.733396], [-74.165174, 40.733744], [-74.164761, 40.734084], [-74.164302, 40.734434], [-74.16389, 40.734733], [-74.163467, 40.735021], [-74.163041, 40.735303], [-74.162604, 40.735577], [-74.16216, 40.735846], [-74.161581, 40.736172], [-74.159921, 40.737098], [-74.159419, 40.737366], [-74.158648, 40.737758], [-74.156396, 40.738983], [-74.153921, 40.740427], [-74.153269, 40.740762], [-74.152681, 40.740992], [-74.152068, 40.741175], [-74.15143, 40.74131], [-74.150778, 40.741392], [-74.137017, 40.742576], [-74.130544, 40.743132], [-74.12607, 40.743699], [-74.121701, 40.744617], [-74.118188, 40.745639], [-74.114648, 40.746804], [-74.113384, 40.74722], [-74.112843, 40.747399], [-74.088091, 40.755737], [-74.08607, 40.756518], [-74.075825, 40.761185], [-74.053384, 40.771412], [-74.052383, 40.771814], [-74.05133, 40.772135], [-74.050241, 40.772373], [-74.049125, 40.772521], [-74.047992, 40.772579], [-74.04686, 40.772549], [-74.045736, 40.772428], [-74.044638, 40.772217], [-74.043571, 40.771921], [-74.042552, 40.771543], [-74.040425, 40.770631], [-74.02259, 40.762999], [-73.992366, 40.750048]]}}]}