{"type": "FeatureCollection", "features": [{"type": "Feature", "properties": {"stop_id": "1", "name": "30TH ST. PHL.", "routes": ["ATLC"]}, "geometry": {"type": "Point", "coordinates": [-75.182327, 39.956565]}}, {"type": "Feature", "properties": {"stop_id": "2", "name": "ABSECON", "routes": ["ATLC"]}, "geometry": {"type": "Point", "coordinates": [-74.502094, 39.424333]}}, {"type": "Feature", "properties": {"stop_id": "3", "name": "ALLENDALE", "routes": ["MNBN"]}, "geometry": {"type": "Point", "coordinates": [-74.130957, 41.030902]}}, {"type": "Feature", "properties": {"stop_id": "4", "name": "ALLENHURST", "routes": ["NJCL"]}, "geometry": {"type": "Point", "coordinates": [-74.006769, 40.237659]}}, {"type": "Feature", "properties": {"stop_id": "5", "name": "ANDERSON STREET", "routes": ["PASC"]}, "geometry": {"type": "Point", "coordinates": [-74.043781, 40.894458]}}, {"type": "Feature", "properties": {"stop_id": "6", "name": "ANNANDALE", "routes": ["RARV"]}, "geometry": {"type": "Point", "coordinates": [-74.878569, 40.645173]}}, {"type": "Feature", "properties": {"stop_id": "8", "name": "ASBURY PARK", "routes": ["NJCL"]}, "geometry": {"type": "Point", "coordinates": [-74.014786, 40.215359]}}, {"type": "Feature", "properties": {"stop_id": "9", "name": "ATCO", "routes": ["ATLC"]}, "geometry": {"type": "Point", "coordinates": [-74.907588, 39.783547]}}, {"type": "Feature", "properties": {"stop_id": "10", "name": "ATLANTIC CITY", "routes": ["ATLC"]}, "geometry": {"type": "Point", "coordinates": [-74.441486, 39.363299]}}, {"type": "Feature", "properties": {"stop_id": "11", "name": "AVENEL", "routes": ["NJCL"]}, "geometry": {"type": "Point", "coordinates": [-74.27753, 40.57762]}}, {"type": "Feature", "properties": {"stop_id": "12", "name": "BASKING RIDGE", "routes": ["MNEG"]}, "geometry": {"type": "Point", "coordinates": [-74.55527, 40.711378]}}, {"type": "Feature", "properties": {"stop_id": "13", "name": "BAY HEAD", "routes": ["NJCL"]}, "geometry": {"type": "Point", "coordinates": [-74.046183, 40.077178]}}, {"type": "Feature", "properties": {"stop_id": "14", "name": "BAY STREET", "routes": ["BNTN"]}, "geometry": {"type": "Point", "coordinates": [-74.208681, 40.808178]}}, {"type": "Feature", "properties": {"stop_id": "15", "name": "BELMAR", "routes": ["NJCL"]}, "geometry": {"type": "Point", "coordinates": [-74.027301, 40.18059]}}, {"type": "Feature", "properties": {"stop_id": "17", "name": "BERKELEY HEIGHTS", "routes": ["MNEG"]}, "geometry": {"type": "Point", "coordinates": [-74.442649, 40.682345]}}, {"type": "Feature", "properties": {"stop_id": "18", "name": "BERNARDSVILLE", "routes": ["MNEG"]}, "geometry": {"type": "Point", "coordinates": [-74.571023, 40.716845]}}, {"type": "Feature", "properties": {"stop_id": "19", "name": "BLOOMFIELD", "routes": ["BNTN"]}, "geometry": {"type": "Point", "coordinates": [-74.200043, 40.792709]}}, {"type": "Feature", "properties": {"stop_id": "20", "name": "BOONTON", "routes": ["BNTN"]}, "geometry": {"type": "Point", "coordinates": [-74.407736, 40.903378]}}, {"type": "Feature", "properties": {"stop_id": "21", "name": "BOUND BROOK", "routes": ["RARV"]}, "geometry": {"type": "Point", "coordinates": [-74.530617, 40.560929]}}, {"type": "Feature", "properties": {"stop_id": "22", "name": "BRADLEY BEACH", "routes": ["NJCL"]}, "geometry": {"type": "Point", "coordinates": [-74.018891, 40.203751]}}, {"type": "Feature", "properties": {"stop_id": "23", "name": "BRICK CHURCH", "routes": ["MNE", "MNEG"]}, "geometry": {"type": "Point", "coordinates": [-74.218612, 40.765134]}}, {"type": "Feature", "properties": {"stop_id": "24", "name": "BRIDGEWATER", "routes": ["RARV"]}, "geometry": {"type": "Point", "coordinates": [-74.551741, 40.559904]}}, {"type": "Feature", "properties": {"stop_id": "25", "name": "BROADWAY", "routes": ["MNBN"]}, "geometry": {"type": "Point", "coordinates": [-74.115236, 40.922505]}}, {"type": "Feature", "properties": {"stop_id": "27", "name": "CHATHAM", "routes": ["MNE"]}, "geometry": {"type": "Point", "coordinates": [-74.384812, 40.740137]}}, {"type": "Feature", "properties": {"stop_id": "28", "name": "CHERRY HILL", "routes": ["ATLC"]}, "geometry": {"type": "Point", "coordinates": [-75.041661, 39.928447]}}, {"type": "Feature", "properties": {"stop_id": "29", "name": "CLIFTON", "routes": ["MNBN"]}, "geometry": {"type": "Point", "coordinates": [-74.153206, 40.867998]}}, {"type": "Feature", "properties": {"stop_id": "30", "name": "CONVENT", "routes": ["MNE"]}, "geometry": {"type": "Point", "coordinates": [-74.443435, 40.779038]}}, {"type": "Feature", "properties": {"stop_id": "31", "name": "ROSELLE PARK", "routes": ["RARV"]}, "geometry": {"type": "Point", "coordinates": [-74.266323, 40.66715]}}, {"type": "Feature", "properties": {"stop_id": "32", "name": "CRANFORD", "routes": ["RARV"]}, "geometry": {"type": "Point", "coordinates": [-74.303226, 40.655523]}}, {"type": "Feature", "properties": {"stop_id": "33", "name": "DELAWANNA", "routes": ["MNBN"]}, "geometry": {"type": "Point", "coordinates": [-74.131262, 40.831369]}}, {"type": "Feature", "properties": {"stop_id": "34", "name": "DENVILLE", "routes": ["BNTN", "MNE"]}, "geometry": {"type": "Point", "coordinates": [-74.481513, 40.8839]}}, {"type": "Feature", "properties": {"stop_id": "35", "name": "DOVER", "routes": ["BNTN", "MNE"]}, "geometry": {"type": "Point", "coordinates": [-74.555887, 40.883415]}}, {"type": "Feature", "properties": {"stop_id": "36", "name": "DUNELLEN", "routes": ["RARV"]}, "geometry": {"type": "Point", "coordinates": [-74.463043, 40.590869]}}, {"type": "Feature", "properties": {"stop_id": "37", "name": "EAST ORANGE", "routes": ["MNE", "MNEG"]}, "geometry": {"type": "Point", "coordinates": [-74.210464, 40.760977]}}, {"type": "Feature", "properties": {"stop_id": "38", "name": "EDISON STATION", "routes": ["NEC"]}, "geometry": {"type": "Point", "coordinates": [-74.410972, 40.519148]}}, {"type": "Feature", "properties": {"stop_id": "39", "name": "EGG HARBOR", "routes": ["ATLC"]}, "geometry": {"type": "Point", "coordinates": [-74.648028, 39.526441]}}, {"type": "Feature", "properties": {"stop_id": "40", "name": "ELBERON", "routes": ["NJCL"]}, "geometry": {"type": "Point", "coordinates": [-73.99762, 40.265292]}}, {"type": "Feature", "properties": {"stop_id": "41", "name": "ELIZABETH", "routes": ["NEC", "NJCL"]}, "geometry": {"type": "Point", "coordinates": [-74.215174, 40.667857]}}, {"type": "Feature", "properties": {"stop_id": "42", "name": "EMERSON", "routes": ["PASC"]}, "geometry": {"type": "Point", "coordinates": [-74.027474, 40.975036]}}, {"type": "Feature", "properties": {"stop_id": "43", "name": "ESSEX STREET", "routes": ["PASC"]}, "geometry": {"type": "Point", "coordinates": [-74.051893, 40.878973]}}, {"type": "Feature", "properties": {"stop_id": "44", "name": "FANWOOD", "routes": ["RARV"]}, "geometry": {"type": "Point", "coordinates": [-74.385003, 40.64106]}}, {"type": "Feature", "properties": {"stop_id": "45", "name": "FAR HILLS", "routes": ["MNEG"]}, "geometry": {"type": "Point", "coordinates": [-74.633734, 40.68571]}}, {"type": "Feature", "properties": {"stop_id": "46", "name": "GARFIELD", "routes": ["MNBN"]}, "geometry": {"type": "Point", "coordinates": [-74.10556, 40.866669]}}, {"type": "Feature", "properties": {"stop_id": "47", "name": "GARWOOD", "routes": ["RARV"]}, "geometry": {"type": "Point", "coordinates": [-74.324794, 40.652569]}}, {"type": "Feature", "properties": {"stop_id": "48", "name": "GILLETTE", "routes": ["MNEG"]}, "geometry": {"type": "Point", "coordinates": [-74.468317, 40.678251]}}, {"type": "Feature", "properties": {"stop_id": "49", "name": "GLADSTONE", "routes": ["MNEG"]}, "geometry": {"type": "Point", "coordinates": [-74.666371, 40.720284]}}, {"type": "Feature", "properties": {"stop_id": "50", "name": "GLEN RIDGE", "routes": ["BNTN"]}, "geometry": {"type": "Point", "coordinates": [-74.204655, 40.80059]}}, {"type": "Feature", "properties": {"stop_id": "51", "name": "GLEN ROCK BORO HALL", "routes": ["MNBN"]}, "geometry": {"type": "Point", "coordinates": [-74.1293, 40.96137]}}, {"type": "Feature", "properties": {"stop_id": "52", "name": "GLEN ROCK MAIN LINE", "routes": ["MNBN"]}, "geometry": {"type": "Point", "coordinates": [-74.133485, 40.962206]}}, {"type": "Feature", "properties": {"stop_id": "54", "name": "HACKETTSTOWN", "routes": ["BNTN", "MNE"]}, "geometry": {"type": "Point", "coordinates": [-74.835352, 40.851444]}}, {"type": "Feature", "properties": {"stop_id": "55", "name": "HAMMONTON", "routes": ["ATLC"]}, "geometry": {"type": "Point", "coordinates": [-74.79946, 39.631673]}}, {"type": "Feature", "properties": {"stop_id": "58", "name": "HAWTHORNE", "routes": ["MNBN"]}, "geometry": {"type": "Point", "coordinates": [-74.152411, 40.942539]}}, {"type": "Feature", "properties": {"stop_id": "59", "name": "HAZLET", "routes": ["NJCL"]}, "geometry": {"type": "Point", "coordinates": [-74.190393, 40.415385]}}, {"type": "Feature", "properties": {"stop_id": "60", "name": "HIGH BRIDGE", "routes": ["RARV"]}, "geometry": {"type": "Point", "coordinates": [-74.895863, 40.666884]}}, {"type": "Feature", "properties": {"stop_id": "61", "name": "HIGHLAND AVENUE", "routes": ["MNE", "MNEG"]}, "geometry": {"type": "Point", "coordinates": [-74.243744, 40.766863]}}, {"type": "Feature", "properties": {"stop_id": "62", "name": "HILLSDALE", "routes": ["PASC"]}, "geometry": {"type": "Point", "coordinates": [-74.041033, 41.002414]}}, {"type": "Feature", "properties": {"stop_id": "63", "name": "HOBOKEN", "routes": ["BNTN", "MNBN", "MNE", "MNEG", "MRL", "PASC"]}, "geometry": {"type": "Point", "coordinates": [-74.028046, 40.734843]}}, {"type": "Feature", "properties": {"stop_id": "64", "name": "HOHOKUS", "routes": ["MNBN"]}, "geometry": {"type": "Point", "coordinates": [-74.113521, 40.997369]}}, {"type": "Feature", "properties": {"stop_id": "67", "name": "LAKE HOPATCONG", "routes": ["BNTN", "MNE"]}, "geometry": {"type": "Point", "coordinates": [-74.665697, 40.904219]}}, {"type": "Feature", "properties": {"stop_id": "68", "name": "LEBANON", "routes": ["RARV"]}, "geometry": {"type": "Point", "coordinates": [-74.835766, 40.636903]}}, {"type": "Feature", "properties": {"stop_id": "69", "name": "LINCOLN PARK", "routes": ["BNTN"]}, "geometry": {"type": "Point", "coordinates": [-74.301826, 40.924138]}}, {"type": "Feature", "properties": {"stop_id": "70", "name": "LINDEN", "routes": ["NEC", "NJCL"]}, "geometry": {"type": "Point", "coordinates": [-74.251772, 40.629485]}}, {"type": "Feature", "properties": {"stop_id": "71", "name": "LINDENWOLD", "routes": ["ATLC"]}, "geometry": {"type": "Point", "coordinates": [-75.000314, 39.833809]}}, {"type": "Feature", "properties": {"stop_id": "72", "name": "LITTLE FALLS", "routes": ["BNTN"]}, "geometry": {"type": "Point", "coordinates": [-74.235372, 40.880669]}}, {"type": "Feature", "properties": {"stop_id": "73", "name": "LITTLE SILVER", "routes": ["NJCL"]}, "geometry": {"type": "Point", "coordinates": [-74.041054, 40.326715]}}, {"type": "Feature", "properties": {"stop_id": "74", "name": "LONG BRANCH", "routes": ["NJCL"]}, "geometry": {"type": "Point", "coordinates": [-73.988331, 40.297145]}}, {"type": "Feature", "properties": {"stop_id": "75", "name": "LYNDHURST", "routes": ["MNBN"]}, "geometry": {"type": "Point", "coordinates": [-74.122696, 40.814165]}}, {"type": "Feature", "properties": {"stop_id": "76", "name": "LYONS", "routes": ["MNEG"]}, "geometry": {"type": "Point", "coordinates": [-74.54947, 40.684844]}}, {"type": "Feature", "properties": {"stop_id": "77", "name": "MADISON", "routes": ["MNE"]}, "geometry": {"type": "Point", "coordinates": [-74.415105, 40.757028]}}, {"type": "Feature", "properties": {"stop_id": "78", "name": "MAHWAH", "routes": ["MNBN"]}, "geometry": {"type": "Point", "coordinates": [-74.14662, 41.094416]}}, {"type": "Feature", "properties": {"stop_id": "79", "name": "MANASQUAN", "routes": ["NJCL"]}, "geometry": {"type": "Point", "coordinates": [-74.047688, 40.120573]}}, {"type": "Feature", "properties": {"stop_id": "81", "name": "MAPLEWOOD", "routes": ["MNE", "MNEG"]}, "geometry": {"type": "Point", "coordinates": [-74.275427, 40.731149]}}, {"type": "Feature", "properties": {"stop_id": "83", "name": "METROPARK", "routes": ["NEC"]}, "geometry": {"type": "Point", "coordinates": [-74.329394, 40.56864]}}, {"type": "Feature", "properties": {"stop_id": "84", "name": "METUCHEN", "routes": ["NEC"]}, "geometry": {"type": "Point", "coordinates": [-74.360671, 40.540736]}}, {"type": "Feature", "properties": {"stop_id": "85", "name": "MIDDLETOWN NJ", "routes": ["NJCL"]}, "geometry": {"type": "Point", "coordinates": [-74.116131, 40.38978]}}, {"type": "Feature", "properties": {"stop_id": "87", "name": "MILLBURN", "routes": ["MNE", "MNEG"]}, "geometry": {"type": "Point", "coordinates": [-74.303755, 40.725622]}}, {"type": "Feature", "properties": {"stop_id": "88", "name": "MILLINGTON", "routes": ["MNEG"]}, "geometry": {"type": "Point", "coordinates": [-74.523606, 40.673513]}}, {"type": "Feature", "properties": {"stop_id": "89", "name": "MONTCLAIR HEIGHTS", "routes": ["BNTN"]}, "geometry": {"type": "Point", "coordinates": [-74.2025, 40.857536]}}, {"type": "Feature", "properties": {"stop_id": "90", "name": "MONTVALE", "routes": ["PASC"]}, "geometry": {"type": "Point", "coordinates": [-74.029152, 41.040879]}}, {"type": "Feature", "properties": {"stop_id": "91", "name": "MORRIS PLAINS", "routes": ["MNE"]}, "geometry": {"type": "Point", "coordinates": [-74.478197, 40.828637]}}, {"type": "Feature", "properties": {"stop_id": "92", "name": "MORRISTOWN", "routes": ["MNE"]}, "geometry": {"type": "Point", "coordinates": [-74.474086, 40.797113]}}, {"type": "Feature", "properties": {"stop_id": "93", "name": "MOUNT OLIVE", "routes": ["BNTN", "MNE"]}, "geometry": {"type": "Point", "coordinates": [-74.730653, 40.907376]}}, {"type": "Feature", "properties": {"stop_id": "94", "name": "MOUNT TABOR", "routes": ["MNE"]}, "geometry": {"type": "Point", "coordinates": [-74.481915, 40.875904]}}, {"type": "Feature", "properties": {"stop_id": "95", "name": "MOUNTAIN AVENUE", "routes": ["BNTN"]}, "geometry": {"type": "Point", "coordinates": [-74.205306, 40.848715]}}, {"type": "Feature", "properties": {"stop_id": "96", "name": "MOUNTAIN LAKES", "routes": ["BNTN"]}, "geometry": {"type": "Point", "coordinates": [-74.433604, 40.885947]}}, {"type": "Feature", "properties": {"stop_id": "97", "name": "MOUNTAIN STATION", "routes": ["MNE", "MNEG"]}, "geometry": {"type": "Point", "coordinates": [-74.253024, 40.755365]}}, {"type": "Feature", "properties": {"stop_id": "98", "name": "MOUNTAIN VIEW", "routes": ["BNTN"]}, "geometry": {"type": "Point", "coordinates": [-74.268158, 40.914402]}}, {"type": "Feature", "properties": {"stop_id": "99", "name": "MURRAY HILL", "routes": ["MNEG"]}, "geometry": {"type": "Point", "coordinates": [-74.403134, 40.695068]}}, {"type": "Feature", "properties": {"stop_id": "100", "name": "NANUET", "routes": ["PASC"]}, "geometry": {"type": "Point", "coordinates": [-74.014794, 41.090015]}}, {"type": "Feature", "properties": {"stop_id": "101", "name": "NETCONG", "routes": ["BNTN", "MNE"]}, "geometry": {"type": "Point", "coordinates": [-74.707317, 40.897552]}}, {"type": "Feature", "properties": {"stop_id": "102", "name": "NETHERWOOD", "routes": ["RARV"]}, "geometry": {"type": "Point", "coordinates": [-74.403455, 40.629148]}}, {"type": "Feature", "properties": {"stop_id": "103", "name": "NEW BRUNSWICK", "routes": ["NEC"]}, "geometry": {"type": "Point", "coordinates": [-74.445751, 40.497278]}}, {"type": "Feature", "properties": {"stop_id": "104", "name": "NEW PROVIDENCE", "routes": ["MNEG"]}, "geometry": {"type": "Point", "coordinates": [-74.386501, 40.712022]}}, {"type": "Feature", "properties": {"stop_id": "105", "name": "NEW YORK PENN STATION", "routes": ["MNE", "MNEG", "NEC", "NJCL", "RARV"]}, "geometry": {"type": "Point", "coordinates": [-73.992358, 40.750046]}}, {"type": "Feature", "properties": {"stop_id": "106", "name": "NEWARK BROAD ST", "routes": ["BNTN", "MNE", "MNEG"]}, "geometry": {"type": "Point", "coordinates": [-74.171943, 40.747621]}}, {"type": "Feature", "properties": {"stop_id": "107", "name": "NEWARK PENN STATION", "routes": ["NEC", "NJCL", "RARV"]}, "geometry": {"type": "Point", "coordinates": [-74.164554, 40.734221]}}, {"type": "Feature", "properties": {"stop_id": "108", "name": "NORTH BRANCH", "routes": ["RARV"]}, "geometry": {"type": "Point", "coordinates": [-74.683802, 40.59202]}}, {"type": "Feature", "properties": {"stop_id": "109", "name": "NORTH ELIZABETH", "routes": ["NEC", "NJCL"]}, "geometry": {"type": "Point", "coordinates": [-74.206165, 40.680265]}}, {"type": "Feature", "properties": {"stop_id": "110", "name": "NEW BRIDGE LANDING", "routes": ["PASC"]}, "geometry": {"type": "Point", "coordinates": [-74.035044, 40.910856]}}, {"type": "Feature", "properties": {"stop_id": "111", "name": "ORADELL", "routes": ["PASC"]}, "geometry": {"type": "Point", "coordinates": [-74.029983, 40.953478]}}, {"type": "Feature", "properties": {"stop_id": "112", "name": "ORANGE", "routes": ["MNE", "MNEG"]}, "geometry": {"type": "Point", "coordinates": [-74.233103, 40.771883]}}, {"type": "Feature", "properties": {"stop_id": "114", "name": "PARK RIDGE", "routes": ["PASC"]}, "geometry": {"type": "Point", "coordinates": [-74.036164, 41.032305]}}, {"type": "Feature", "properties": {"stop_id": "115", "name": "PASSAIC", "routes": ["MNBN"]}, "geometry": {"type": "Point", "coordinates": [-74.133933, 40.849411]}}, {"type": "Feature", "properties": {"stop_id": "116", "name": "PATERSON", "routes": ["MNBN"]}, "geometry": {"type": "Point", "coordinates": [-74.16733, 40.914887]}}, {"type": "Feature", "properties": {"stop_id": "117", "name": "PEAPACK", "routes": ["MNEG"]}, "geometry": {"type": "Point", "coordinates": [-74.658469, 40.708794]}}, {"type": "Feature", "properties": {"stop_id": "118", "name": "PEARL RIVER", "routes": ["PASC"]}, "geometry": {"type": "Point", "coordinates": [-74.02232, 41.058181]}}, {"type": "Feature", "properties": {"stop_id": "119", "name": "PERTH AMBOY", "routes": ["NJCL"]}, "geometry": {"type": "Point", "coordinates": [-74.273752, 40.509398]}}, {"type": "Feature", "properties": {"stop_id": "120", "name": "PLAINFIELD", "routes": ["RARV"]}, "geometry": {"type": "Point", "coordinates": [-74.420163, 40.618425]}}, {"type": "Feature", "properties": {"stop_id": "121", "name": "PLAUDERVILLE", "routes": ["MNBN"]}, "geometry": {"type": "Point", "coordinates": [-74.102695, 40.884916]}}, {"type": "Feature", "properties": {"stop_id": "122", "name": "POINT PLEASANT", "routes": ["NJCL"]}, "geometry": {"type": "Point", "coordinates": [-74.048191, 40.092718]}}, {"type": "Feature", "properties": {"stop_id": "124", "name": "PRINCETON", "routes": ["PRIN"]}, "geometry": {"type": "Point", "coordinates": [-74.65887, 40.342088]}}, {"type": "Feature", "properties": {"stop_id": "125", "name": "PRINCETON JCT.", "routes": ["NEC", "PRIN"]}, "geometry": {"type": "Point", "coordinates": [-74.623753, 40.316316]}}, {"type": "Feature", "properties": {"stop_id": "126", "name": "RADBURN", "routes": ["MNBN"]}, "geometry": {"type": "Point", "coordinates": [-74.121617, 40.939914]}}, {"type": "Feature", "properties": {"stop_id": "127", "name": "RAHWAY", "routes": ["NEC", "NJCL"]}, "geometry": {"type": "Point", "coordinates": [-74.276692, 40.606338]}}, {"type": "Feature", "properties": {"stop_id": "128", "name": "RAMSEY", "routes": ["MNBN"]}, "geometry": {"type": "Point", "coordinates": [-74.141877, 41.056422]}}, {"type": "Feature", "properties": {"stop_id": "129", "name": "RARITAN", "routes": ["RARV"]}, "geometry": {"type": "Point", "coordinates": [-74.634364, 40.571005]}}, {"type": "Feature", "properties": {"stop_id": "130", "name": "RED BANK", "routes": ["NJCL"]}, "geometry": {"type": "Point", "coordinates": [-74.074538, 40.348284]}}, {"type": "Feature", "properties": {"stop_id": "131", "name": "RIDGEWOOD", "routes": ["MNBN"]}, "geometry": {"type": "Point", "coordinates": [-74.120592, 40.980629]}}, {"type": "Feature", "properties": {"stop_id": "132", "name": "RIVER EDGE", "routes": ["PASC"]}, "geometry": {"type": "Point", "coordinates": [-74.02914, 40.935146]}}, {"type": "Feature", "properties": {"stop_id": "134", "name": "RUTHERFORD", "routes": ["MNBN"]}, "geometry": {"type": "Point", "coordinates": [-74.100563, 40.828248]}}, {"type": "Feature", "properties": {"stop_id": "136", "name": "SHORT HILLS", "routes": ["MNE", "MNEG"]}, "geometry": {"type": "Point", "coordinates": [-74.323754, 40.725249]}}, {"type": "Feature", "properties": {"stop_id": "138", "name": "SOMERVILLE", "routes": ["RARV"]}, "geometry": {"type": "Point", "coordinates": [-74.61397, 40.566075]}}, {"type": "Feature", "properties": {"stop_id": "139", "name": "SOUTH AMBOY", "routes": ["NJCL"]}, "geometry": {"type": "Point", "coordinates": [-74.28014, 40.484308]}}, {"type": "Feature", "properties": {"stop_id": "140", "name": "SOUTH ORANGE", "routes": ["MNE", "MNEG"]}, "geometry": {"type": "Point", "coordinates": [-74.260538, 40.745952]}}, {"type": "Feature", "properties": {"stop_id": "141", "name": "SPRING LAKE", "routes": ["NJCL"]}, "geometry": {"type": "Point", "coordinates": [-74.035481, 40.150557]}}, {"type": "Feature", "properties": {"stop_id": "142", "name": "SPRING VALLEY", "routes": ["PASC"]}, "geometry": {"type": "Point", "coordinates": [-74.043991, 41.111978]}}, {"type": "Feature", "properties": {"stop_id": "143", "name": "STIRLING", "routes": ["MNEG"]}, "geometry": {"type": "Point", "coordinates": [-74.493723, 40.674579]}}, {"type": "Feature", "properties": {"stop_id": "144", "name": "SUFFERN", "routes": ["MNBN"]}, "geometry": {"type": "Point", "coordinates": [-74.153442, 41.11354]}}, {"type": "Feature", "properties": {"stop_id": "145", "name": "SUMMIT", "routes": ["MNE", "MNEG"]}, "geometry": {"type": "Point", "coordinates": [-74.357807, 40.716549]}}, {"type": "Feature", "properties": {"stop_id": "146", "name": "TETERBORO", "routes": ["PASC"]}, "geometry": {"type": "Point", "coordinates": [-74.062676, 40.864858]}}, {"type": "Feature", "properties": {"stop_id": "147", "name": "TOWACO", "routes": ["BNTN"]}, "geometry": {"type": "Point", "coordinates": [-74.343842, 40.922809]}}, {"type": "Feature", "properties": {"stop_id": "148", "name": "TRENTON TRANSIT CENTER", "routes": ["NEC"]}, "geometry": {"type": "Point", "coordinates": [-74.753926, 40.218515]}}, {"type": "Feature", "properties": {"stop_id": "150", "name": "UPPER MONTCLAIR", "routes": ["BNTN"]}, "geometry": {"type": "Point", "coordinates": [-74.209368, 40.842004]}}, {"type": "Feature", "properties": {"stop_id": "151", "name": "WALDWICK", "routes": ["MNBN"]}, "geometry": {"type": "Point", "coordinates": [-74.123412, 41.012734]}}, {"type": "Feature", "properties": {"stop_id": "152", "name": "WALNUT STREET", "routes": ["BNTN"]}, "geometry": {"type": "Point", "coordinates": [-74.20963, 40.817218]}}, {"type": "Feature", "properties": {"stop_id": "153", "name": "WATCHUNG AVENUE", "routes": ["BNTN"]}, "geometry": {"type": "Point", "coordinates": [-74.206934, 40.829514]}}, {"type": "Feature", "properties": {"stop_id": "154", "name": "WATSESSING AVENUE", "routes": ["BNTN"]}, "geometry": {"type": "Point", "coordinates": [-74.198451, 40.782743]}}, {"type": "Feature", "properties": {"stop_id": "155", "name": "WESTFIELD", "routes": ["RARV"]}, "geometry": {"type": "Point", "coordinates": [-74.347629, 40.649448]}}, {"type": "Feature", "properties": {"stop_id": "156", "name": "WESTWOOD", "routes": ["PASC"]}, "geometry": {"type": "Point", "coordinates": [-74.032696, 40.990817]}}, {"type": "Feature", "properties": {"stop_id": "157", "name": "WHITE HOUSE", "routes": ["RARV"]}, "geometry": {"type": "Point", "coordinates": [-74.77066, 40.615611]}}, {"type": "Feature", "properties": {"stop_id": "158", "name": "WOODBRIDGE", "routes": ["NJCL"]}, "geometry": {"type": "Point", "coordinates": [-74.277751, 40.55661]}}, {"type": "Feature", "properties": {"stop_id": "159", "name": "WOODCLIFF LAKE", "routes": ["PASC"]}, "geometry": {"type": "Point", "coordinates": [-74.040775, 41.021078]}}, {"type": "Feature", "properties": {"stop_id": "160", "name": "WOOD-RIDGE", "routes": ["PASC"]}, "geometry": {"type": "Point", "coordinates": [-74.078719, 40.843974]}}, {"type": "Feature", "properties": {"stop_id": "31696", "name": "MONMOUTH PARK", "routes": ["NJCL"]}, "geometry": {"type": "Point", "coordinates": [-74.015172, 40.313425]}}, {"type": "Feature", "properties": {"stop_id": "32905", "name": "HAMILTON", "routes": ["NEC"]}, "geometry": {"type": "Point", "coordinates": [-74.70412, 40.255309]}}, {"type": "Feature", "properties": {"stop_id": "32906", "name": "JERSEY AVE.", "routes": ["NEC"]}, "geometry": {"type": "Point", "coordinates": [-74.467363, 40.476912]}}, {"type": "Feature", "properties": {"stop_id": "37169", "name": "ABERDEEN-MATAWAN", "routes": ["NJCL"]}, "geometry": {"type": "Point", "coordinates": [-74.223702, 40.420161]}}, {"type": "Feature", "properties": {"stop_id": "37953", "name": "NEWARK AIRPORT RAILROAD STATION", "routes": ["NEC", "NJCL"]}, "geometry": {"type": "Point", "coordinates": [-74.190717, 40.704415]}}, {"type": "Feature", "properties": {"stop_id": "38081", "name": "MSU", "routes": ["BNTN"]}, "geometry": {"type": "Point", "coordinates": [-74.197439, 40.869782]}}, {"type": "Feature", "properties": {"stop_id": "38105", "name": "UNION", "routes": ["RARV"]}, "geometry": {"type": "Point", "coordinates": [-74.238605, 40.683663]}}, {"type": "Feature", "properties": {"stop_id": "38174", "name": "SECAUCUS LOWER LEVEL", "routes": ["MNBN", "MRL", "PASC"]}, "geometry": {"type": "Point", "coordinates": [-74.075821, 40.761188]}}, {"type": "Feature", "properties": {"stop_id": "38187", "name": "SECAUCUS UPPER LEVEL", "routes": ["MNE", "MNEG", "NEC", "NJCL", "RARV"]}, "geometry": {"type": "Point", "coordinates": [-74.075821, 40.761188]}}, {"type": "Feature", "properties": {"stop_id": "38417", "name": "RAMSEY ROUTE 17 STATION", "routes": ["MNBN"]}, "geometry": {"type": "Point", "coordinates": [-74.145485, 41.07513]}}, {"type": "Feature", "properties": {"stop_id": "39472", "name": "MOUNT ARLINGTON", "routes": ["BNTN", "MNE"]}, "geometry": {"type": "Point", "coordinates": [-74.632731, 40.89659]}}, {"type": "Feature", "properties": {"stop_id": "39635", "name": "WAYNE/ROUTE 23 TRANSIT CENTER [RR]", "routes": ["BNTN"]}, "geometry": {"type": "Point", "coordinates": [-74.256971, 40.900254]}}, {"type": "Feature", "properties": {"stop_id": "40570", "name": "MEADOWLANDS RAIL STATION", "routes": ["MRL"]}, "geometry": {"type": "Point", "coordinates": [-74.072114, 40.813053]}}, {"type": "Feature", "properties": {"stop_id": "43298", "name": "PENNSAUKEN TRANSIT CENTER", "routes": ["ATLC"]}, "geometry": {"type": "Point", "coordinates": [-75.061796, 39.977769]}}, {"type": "Feature", "properties": {"stop_id": "43599", "name": "WESMONT", "routes": ["MNBN"]}, "geometry": {"type": "Point", "coordinates": [-74.096951, 40.854979]}}]}